<?xml version="1.0" encoding="UTF-8"?>
<kml xmlns="http://www.opengis.net/kml/2.2">
<Document>
<name>🎣 OceanMaster v10.2 漁場預測</name>
<description>生成: 2026-02-11 22:10 UTC
⚠️ 本預測僅供參考，實際作業請依據船長經驗和即時觀測</description>
<Style id="s_best"><IconStyle><scale>1.3</scale><Icon><href>https://maps.google.com/mapfiles/kml/paddle/red-circle.png</href></Icon></IconStyle></Style>
<Style id="s_good"><IconStyle><scale>1.1</scale><Icon><href>https://maps.google.com/mapfiles/kml/paddle/orange-circle.png</href></Icon></IconStyle></Style>
<Style id="s_fair"><IconStyle><scale>0.9</scale><Icon><href>https://maps.google.com/mapfiles/kml/paddle/ylw-circle.png</href></Icon></IconStyle></Style>
<Style id="s_low"><IconStyle><scale>0.7</scale><Icon><href>https://maps.google.com/mapfiles/kml/paddle/wht-circle.png</href></Icon></IconStyle></Style>
<Style id="s_area"><PolyStyle><color>20ffffff</color><outline>1</outline></PolyStyle><LineStyle><color>ff0088ff</color><width>1</width></LineStyle></Style>
<LookAt><longitude>147.5</longitude><latitude>20.0</latitude><range>2500000</range></LookAt>
<Folder><name>🎯 v10.2 漁場熱點</name><open>1</open>
<description>Φ(Deutsch2015真實計算) + SEAPODYM棲息地 + 營養鏈
Φ不截斷 + EEZ地理校正 + HSI幾何平均
生成: 2026-02-11 22:10 UTC</description>
<Folder><name>鰹魚</name>
<Placemark><name>#1 鰹魚 (36%)</name>
<description><![CDATA[【v10.2 商業級分析】⚪偏低
═══ 綜合 HSI: 36% ═══
🧬 代謝指數Φ: 7.79 ✅充足 (Φ_crit=3.0)
Φ真實計算: Deutsch 2015 (非截斷)
🌡️ SST: N/A
🌿 NPP: 1917 mgC/m²/d | DO: 5.1 ml/L
🏔️ 深度: 5054m
⚓ 水域: 密克羅尼西亞EEZ
EEZ驗證: 需FSM入漁許可
📍 距離: 2100 nm (210.0hr)
📊 【鰹魚（正鰹）】評分 36% — 主要優勢：
  1. 🫧 代謝指數(溫度×溶氧) (優) → 貢獻 50%
  2. 🌡️ 水溫適宜度 (優) → 貢獻 49%
  3. 🌊 穩定鋒面 (差) → 貢獻 1%
  4. 🍤 餌料可及性 (差) → 貢獻 0%
  5. 🌀 渦旋邊緣 (差) → 貢獻 0%]]></description>
<styleUrl>#s_low</styleUrl>
<Point><coordinates>155.75,8.5,0</coordinates></Point></Placemark>
<Placemark><name>#2 鰹魚 (36%)</name>
<description><![CDATA[【v10.2 商業級分析】⚪偏低
═══ 綜合 HSI: 36% ═══
🧬 代謝指數Φ: 7.82 ✅充足 (Φ_crit=3.0)
Φ真實計算: Deutsch 2015 (非截斷)
🌡️ SST: N/A
🌿 NPP: 1917 mgC/m²/d | DO: 5.1 ml/L
🏔️ 深度: 5004m
⚓ 水域: 密克羅尼西亞EEZ
EEZ驗證: 需FSM入漁許可
📍 距離: 2124 nm (212.4hr)
📊 【鰹魚（正鰹）】評分 36% — 主要優勢：
  1. 🫧 代謝指數(溫度×溶氧) (優) → 貢獻 50%
  2. 🌡️ 水溫適宜度 (優) → 貢獻 50%
  3. 🌊 穩定鋒面 (差) → 貢獻 1%
  4. 🍤 餌料可及性 (差) → 貢獻 0%
  5. 🌀 渦旋邊緣 (差) → 貢獻 0%]]></description>
<styleUrl>#s_low</styleUrl>
<Point><coordinates>156.25,8.5,0</coordinates></Point></Placemark>
<Placemark><name>#3 鰹魚 (36%)</name>
<description><![CDATA[【v10.2 商業級分析】⚪偏低
═══ 綜合 HSI: 36% ═══
🧬 代謝指數Φ: 7.81 ✅充足 (Φ_crit=3.0)
Φ真實計算: Deutsch 2015 (非截斷)
🌡️ SST: N/A
🌿 NPP: 1920 mgC/m²/d | DO: 5.1 ml/L
🏔️ 深度: 5107m
⚓ 水域: 馬紹爾群島EEZ
EEZ驗證: 需入漁許可
📍 距離: 2590 nm (259.1hr)
📊 【鰹魚（正鰹）】評分 36% — 主要優勢：
  1. 🫧 代謝指數(溫度×溶氧) (優) → 貢獻 50%
  2. 🌡️ 水溫適宜度 (優) → 貢獻 49%
  3. 🌊 穩定鋒面 (差) → 貢獻 1%
  4. 🍤 餌料可及性 (差) → 貢獻 0%]]></description>
<styleUrl>#s_low</styleUrl>
<Point><coordinates>165.75,8.5,0</coordinates></Point></Placemark>
<Placemark><name>#4 鰹魚 (36%)</name>
<description><![CDATA[【v10.2 商業級分析】⚪偏低
═══ 綜合 HSI: 36% ═══
🧬 代謝指數Φ: 7.80 ✅充足 (Φ_crit=3.0)
Φ真實計算: Deutsch 2015 (非截斷)
🌡️ SST: N/A
🌿 NPP: 1920 mgC/m²/d | DO: 5.1 ml/L
🏔️ 深度: 4827m
⚓ 水域: 馬紹爾群島EEZ
EEZ驗證: 需入漁許可
📍 距離: 2616 nm (261.6hr)
📊 【鰹魚（正鰹）】評分 36% — 主要優勢：
  1. 🫧 代謝指數(溫度×溶氧) (優) → 貢獻 50%
  2. 🌡️ 水溫適宜度 (優) → 貢獻 50%
  3. 🌊 穩定鋒面 (差) → 貢獻 1%
  4. 🍤 餌料可及性 (差) → 貢獻 0%]]></description>
<styleUrl>#s_low</styleUrl>
<Point><coordinates>166.25,8.5,0</coordinates></Point></Placemark>
<Placemark><name>#5 鰹魚 (35%)</name>
<description><![CDATA[【v10.2 商業級分析】⚪偏低
═══ 綜合 HSI: 35% ═══
🧬 代謝指數Φ: 7.74 ✅充足 (Φ_crit=3.0)
Φ真實計算: Deutsch 2015 (非截斷)
🌡️ SST: N/A
🌿 NPP: 1874 mgC/m²/d | DO: 5.1 ml/L
🏔️ 深度: 5153m
⚓ 水域: 密克羅尼西亞EEZ
EEZ驗證: 需FSM入漁許可
📍 距離: 2086 nm (208.6hr)
📊 【鰹魚（正鰹）】評分 35% — 主要優勢：
  1. 🫧 代謝指數(溫度×溶氧) (優) → 貢獻 49%
  2. 🌡️ 水溫適宜度 (優) → 貢獻 49%
  3. 🌊 穩定鋒面 (差) → 貢獻 2%
  4. 🍤 餌料可及性 (差) → 貢獻 0%
  5. 🌀 渦旋邊緣 (差) → 貢獻 0%]]></description>
<styleUrl>#s_low</styleUrl>
<Point><coordinates>155.75,9.0,0</coordinates></Point></Placemark>
<Placemark><name>#6 鰹魚 (35%)</name>
<description><![CDATA[【v10.2 商業級分析】⚪偏低
═══ 綜合 HSI: 35% ═══
🧬 代謝指數Φ: 7.73 ✅充足 (Φ_crit=3.0)
Φ真實計算: Deutsch 2015 (非截斷)
🌡️ SST: N/A
🌿 NPP: 1874 mgC/m²/d | DO: 5.1 ml/L
🏔️ 深度: 5059m
⚓ 水域: 密克羅尼西亞EEZ
EEZ驗證: 需FSM入漁許可
📍 距離: 2110 nm (211.0hr)
📊 【鰹魚（正鰹）】評分 35% — 主要優勢：
  1. 🫧 代謝指數(溫度×溶氧) (優) → 貢獻 50%
  2. 🌡️ 水溫適宜度 (優) → 貢獻 49%
  3. 🌊 穩定鋒面 (差) → 貢獻 1%
  4. 🍤 餌料可及性 (差) → 貢獻 0%
  5. 🌀 渦旋邊緣 (差) → 貢獻 0%]]></description>
<styleUrl>#s_low</styleUrl>
<Point><coordinates>156.25,9.0,0</coordinates></Point></Placemark>
<Placemark><name>#7 鰹魚 (35%)</name>
<description><![CDATA[【v10.2 商業級分析】⚪偏低
═══ 綜合 HSI: 35% ═══
🧬 代謝指數Φ: 7.77 ✅充足 (Φ_crit=3.0)
Φ真實計算: Deutsch 2015 (非截斷)
🌡️ SST: N/A
🌿 NPP: 1876 mgC/m²/d | DO: 5.1 ml/L
🏔️ 深度: 1m
⚓ 水域: 馬紹爾群島EEZ
EEZ驗證: 需入漁許可
📍 距離: 2579 nm (257.9hr)
📊 【鰹魚（正鰹）】評分 35% — 主要優勢：
  1. 🫧 代謝指數(溫度×溶氧) (優) → 貢獻 49%
  2. 🌡️ 水溫適宜度 (優) → 貢獻 49%
  3. 🌊 穩定鋒面 (差) → 貢獻 2%
  4. 🍤 餌料可及性 (差) → 貢獻 0%]]></description>
<styleUrl>#s_low</styleUrl>
<Point><coordinates>165.75,9.0,0</coordinates></Point></Placemark>
<Placemark><name>#8 鰹魚 (35%)</name>
<description><![CDATA[【v10.2 商業級分析】⚪偏低
═══ 綜合 HSI: 35% ═══
🧬 代謝指數Φ: 7.76 ✅充足 (Φ_crit=3.0)
Φ真實計算: Deutsch 2015 (非截斷)
🌡️ SST: N/A
🌿 NPP: 1876 mgC/m²/d | DO: 5.1 ml/L
🏔️ 深度: 1m
⚓ 水域: 馬紹爾群島EEZ
EEZ驗證: 需入漁許可
📍 距離: 2604 nm (260.4hr)
📊 【鰹魚（正鰹）】評分 35% — 主要優勢：
  1. 🫧 代謝指數(溫度×溶氧) (優) → 貢獻 50%
  2. 🌡️ 水溫適宜度 (優) → 貢獻 49%
  3. 🌊 穩定鋒面 (差) → 貢獻 1%
  4. 🍤 餌料可及性 (差) → 貢獻 0%]]></description>
<styleUrl>#s_low</styleUrl>
<Point><coordinates>166.25,9.0,0</coordinates></Point></Placemark>
<Placemark><name>#9 鰹魚 (33%)</name>
<description><![CDATA[【v10.2 商業級分析】⚪偏低
═══ 綜合 HSI: 33% ═══
🧬 代謝指數Φ: 7.52 ✅充足 (Φ_crit=3.0)
Φ真實計算: Deutsch 2015 (非截斷)
🌡️ SST: N/A
🌿 NPP: 3367 mgC/m²/d | DO: 5.2 ml/L
🏔️ 深度: 755m
⚓ 水域: 菲律賓EEZ
EEZ驗證: 外國漁船需特別許可
📍 距離: 908 nm (90.8hr)
📊 【鰹魚（正鰹）】評分 33% — 主要優勢：
  1. 🫧 代謝指數(溫度×溶氧) (優) → 貢獻 51%
  2. 🌡️ 水溫適宜度 (優) → 貢獻 48%
  3. 🌊 穩定鋒面 (差) → 貢獻 1%
  4. 🌀 渦旋邊緣 (差) → 貢獻 0%
  5. 🍤 餌料可及性 (差) → 貢獻 0%]]></description>
<styleUrl>#s_low</styleUrl>
<Point><coordinates>126.0,10.5,0</coordinates></Point></Placemark>
<Placemark><name>#10 鰹魚 (32%)</name>
<description><![CDATA[【v10.2 商業級分析】⚪偏低
═══ 綜合 HSI: 32% ═══
🧬 代謝指數Φ: 7.58 ✅充足 (Φ_crit=3.0)
Φ真實計算: Deutsch 2015 (非截斷)
🌡️ SST: N/A
🌿 NPP: 2365 mgC/m²/d | DO: 5.2 ml/L
🏔️ 深度: 6054m
⚓ 水域: 菲律賓EEZ
EEZ驗證: 外國漁船需特別許可
📍 距離: 932 nm (93.2hr)
📊 【鰹魚（正鰹）】評分 32% — 主要優勢：
  1. 🫧 代謝指數(溫度×溶氧) (優) → 貢獻 51%
  2. 🌡️ 水溫適宜度 (優) → 貢獻 48%
  3. 🌊 穩定鋒面 (差) → 貢獻 1%
  4. 🌀 渦旋邊緣 (差) → 貢獻 0%
  5. 🍤 餌料可及性 (差) → 貢獻 0%]]></description>
<styleUrl>#s_low</styleUrl>
<Point><coordinates>127.5,10.5,0</coordinates></Point></Placemark>
<Placemark><name>#11 鰹魚 (32%)</name>
<description><![CDATA[【v10.2 商業級分析】⚪偏低
═══ 綜合 HSI: 32% ═══
🧬 代謝指數Φ: 7.56 ✅充足 (Φ_crit=3.0)
Φ真實計算: Deutsch 2015 (非截斷)
🌡️ SST: N/A
🌿 NPP: 2164 mgC/m²/d | DO: 5.2 ml/L
🏔️ 深度: 5682m
⚓ 水域: 菲律賓EEZ
EEZ驗證: 外國漁船需特別許可
📍 距離: 941 nm (94.1hr)
📊 【鰹魚（正鰹）】評分 32% — 主要優勢：
  1. 🫧 代謝指數(溫度×溶氧) (優) → 貢獻 51%
  2. 🌡️ 水溫適宜度 (優) → 貢獻 48%
  3. 🌊 穩定鋒面 (差) → 貢獻 1%
  4. 🌀 渦旋邊緣 (差) → 貢獻 0%
  5. 🍤 餌料可及性 (差) → 貢獻 0%]]></description>
<styleUrl>#s_low</styleUrl>
<Point><coordinates>128.0,10.5,0</coordinates></Point></Placemark>
<Placemark><name>#12 鰹魚 (32%)</name>
<description><![CDATA[【v10.2 商業級分析】⚪偏低
═══ 綜合 HSI: 32% ═══
🧬 代謝指數Φ: 7.51 ✅充足 (Φ_crit=3.0)
Φ真實計算: Deutsch 2015 (非截斷)
🌡️ SST: N/A
🌿 NPP: 1733 mgC/m²/d | DO: 5.2 ml/L
🏔️ 深度: 1861m
⚓ 水域: 公海
📍 距離: 1314 nm (131.4hr)
📊 【鰹魚（正鰹）】評分 32% — 主要優勢：
  1. 🫧 代謝指數(溫度×溶氧) (優) → 貢獻 51%
  2. 🌡️ 水溫適宜度 (優) → 貢獻 48%
  3. 🌊 穩定鋒面 (差) → 貢獻 1%
  4. 🌀 渦旋邊緣 (差) → 貢獻 0%
  5. 🍤 餌料可及性 (差) → 貢獻 0%]]></description>
<styleUrl>#s_low</styleUrl>
<Point><coordinates>139.75,10.5,0</coordinates></Point></Placemark>
<Placemark><name>#13 鰹魚 (32%)</name>
<description><![CDATA[【v10.2 商業級分析】⚪偏低
═══ 綜合 HSI: 32% ═══
🧬 代謝指數Φ: 7.50 ✅充足 (Φ_crit=3.0)
Φ真實計算: Deutsch 2015 (非截斷)
🌡️ SST: N/A
🌿 NPP: 3832 mgC/m²/d | DO: 5.2 ml/L
🏔️ 深度: 3m
⚓ 水域: 菲律賓EEZ
EEZ驗證: 外國漁船需特別許可
📍 距離: 901 nm (90.1hr)
📊 【鰹魚（正鰹）】評分 32% — 主要優勢：
  1. 🫧 代謝指數(溫度×溶氧) (優) → 貢獻 51%
  2. 🌡️ 水溫適宜度 (優) → 貢獻 48%
  3. 🌊 穩定鋒面 (差) → 貢獻 1%
  4. 🌀 渦旋邊緣 (差) → 貢獻 0%
  5. 🍤 餌料可及性 (差) → 貢獻 0%]]></description>
<styleUrl>#s_low</styleUrl>
<Point><coordinates>125.5,10.5,0</coordinates></Point></Placemark>
<Placemark><name>#14 鰹魚 (32%)</name>
<description><![CDATA[【v10.2 商業級分析】⚪偏低
═══ 綜合 HSI: 32% ═══
🧬 代謝指數Φ: 7.54 ✅充足 (Φ_crit=3.0)
Φ真實計算: Deutsch 2015 (非截斷)
🌡️ SST: N/A
🌿 NPP: 1733 mgC/m²/d | DO: 5.2 ml/L
🏔️ 深度: 2374m
⚓ 水域: 公海
📍 距離: 1335 nm (133.5hr)
📊 【鰹魚（正鰹）】評分 32% — 主要優勢：
  1. 🫧 代謝指數(溫度×溶氧) (優) → 貢獻 51%
  2. 🌡️ 水溫適宜度 (優) → 貢獻 48%
  3. 🌊 穩定鋒面 (差) → 貢獻 1%
  4. 🌀 渦旋邊緣 (差) → 貢獻 0%
  5. 🍤 餌料可及性 (差) → 貢獻 0%]]></description>
<styleUrl>#s_low</styleUrl>
<Point><coordinates>140.25,10.5,0</coordinates></Point></Placemark>
<Placemark><name>#15 鰹魚 (32%)</name>
<description><![CDATA[【v10.2 商業級分析】⚪偏低
═══ 綜合 HSI: 32% ═══
🧬 代謝指數Φ: 7.48 ✅充足 (Φ_crit=3.0)
Φ真實計算: Deutsch 2015 (非截斷)
🌡️ SST: N/A
🌿 NPP: 1844 mgC/m²/d | DO: 5.2 ml/L
🏔️ 深度: 5710m
⚓ 水域: 公海
📍 距離: 974 nm (97.4hr)
📊 【鰹魚（正鰹）】評分 32% — 主要優勢：
  1. 🫧 代謝指數(溫度×溶氧) (優) → 貢獻 51%
  2. 🌡️ 水溫適宜度 (優) → 貢獻 48%
  3. 🌊 穩定鋒面 (差) → 貢獻 1%
  4. 🌀 渦旋邊緣 (差) → 貢獻 0%
  5. 🍤 餌料可及性 (差) → 貢獻 0%]]></description>
<styleUrl>#s_low</styleUrl>
<Point><coordinates>129.5,10.5,0</coordinates></Point></Placemark>
<Placemark><name>#16 鰹魚 (32%)</name>
<description><![CDATA[【v10.2 商業級分析】⚪偏低
═══ 綜合 HSI: 32% ═══
🧬 代謝指數Φ: 7.49 ✅充足 (Φ_crit=3.0)
Φ真實計算: Deutsch 2015 (非截斷)
🌡️ SST: N/A
🌿 NPP: 1799 mgC/m²/d | DO: 5.2 ml/L
🏔️ 深度: 5827m
⚓ 水域: 公海
📍 距離: 986 nm (98.6hr)
📊 【鰹魚（正鰹）】評分 32% — 主要優勢：
  1. 🫧 代謝指數(溫度×溶氧) (優) → 貢獻 51%
  2. 🌡️ 水溫適宜度 (優) → 貢獻 48%
  3. 🌊 穩定鋒面 (差) → 貢獻 1%
  4. 🌀 渦旋邊緣 (差) → 貢獻 0%
  5. 🍤 餌料可及性 (差) → 貢獻 0%]]></description>
<styleUrl>#s_low</styleUrl>
<Point><coordinates>130.0,10.5,0</coordinates></Point></Placemark>
<Placemark><name>#17 鰹魚 (32%)</name>
<description><![CDATA[【v10.2 商業級分析】⚪偏低
═══ 綜合 HSI: 32% ═══
🧬 代謝指數Φ: 7.58 ✅充足 (Φ_crit=3.0)
Φ真實計算: Deutsch 2015 (非截斷)
🌡️ SST: N/A
🌿 NPP: 1733 mgC/m²/d | DO: 5.2 ml/L
🏔️ 深度: 4263m
⚓ 水域: 公海
📍 距離: 1397 nm (139.7hr)
📊 【鰹魚（正鰹）】評分 32% — 主要優勢：
  1. 🫧 代謝指數(溫度×溶氧) (優) → 貢獻 51%
  2. 🌡️ 水溫適宜度 (優) → 貢獻 48%
  3. 🌊 穩定鋒面 (差) → 貢獻 1%
  4. 🌀 渦旋邊緣 (差) → 貢獻 0%
  5. 🍤 餌料可及性 (差) → 貢獻 0%]]></description>
<styleUrl>#s_low</styleUrl>
<Point><coordinates>141.75,10.5,0</coordinates></Point></Placemark>
<Placemark><name>#18 鰹魚 (32%)</name>
<description><![CDATA[【v10.2 商業級分析】⚪偏低
═══ 綜合 HSI: 32% ═══
🧬 代謝指數Φ: 7.52 ✅充足 (Φ_crit=3.0)
Φ真實計算: Deutsch 2015 (非截斷)
🌡️ SST: N/A
🌿 NPP: 1733 mgC/m²/d | DO: 5.2 ml/L
🏔️ 深度: 4722m
⚓ 水域: 公海
📍 距離: 1483 nm (148.3hr)
📊 【鰹魚（正鰹）】評分 32% — 主要優勢：
  1. 🫧 代謝指數(溫度×溶氧) (優) → 貢獻 51%
  2. 🌡️ 水溫適宜度 (優) → 貢獻 48%
  3. 🌊 穩定鋒面 (差) → 貢獻 1%
  4. 🌀 渦旋邊緣 (差) → 貢獻 0%
  5. 🍤 餌料可及性 (差) → 貢獻 0%]]></description>
<styleUrl>#s_low</styleUrl>
<Point><coordinates>143.75,10.5,0</coordinates></Point></Placemark>
<Placemark><name>#19 鰹魚 (32%)</name>
<description><![CDATA[【v10.2 商業級分析】⚪偏低
═══ 綜合 HSI: 32% ═══
🧬 代謝指數Φ: 7.52 ✅充足 (Φ_crit=3.0)
Φ真實計算: Deutsch 2015 (非截斷)
🌡️ SST: N/A
🌿 NPP: 1733 mgC/m²/d | DO: 5.2 ml/L
🏔️ 深度: 4656m
⚓ 水域: 公海
📍 距離: 1418 nm (141.8hr)
📊 【鰹魚（正鰹）】評分 32% — 主要優勢：
  1. 🫧 代謝指數(溫度×溶氧) (優) → 貢獻 51%
  2. 🌡️ 水溫適宜度 (優) → 貢獻 48%
  3. 🌊 穩定鋒面 (差) → 貢獻 1%
  4. 🌀 渦旋邊緣 (差) → 貢獻 0%
  5. 🍤 餌料可及性 (差) → 貢獻 0%]]></description>
<styleUrl>#s_low</styleUrl>
<Point><coordinates>142.25,10.5,0</coordinates></Point></Placemark>
<Placemark><name>#20 鰹魚 (32%)</name>
<description><![CDATA[【v10.2 商業級分析】⚪偏低
═══ 綜合 HSI: 32% ═══
🧬 代謝指數Φ: 7.46 ✅充足 (Φ_crit=3.0)
Φ真實計算: Deutsch 2015 (非截斷)
🌡️ SST: N/A
🌿 NPP: 1733 mgC/m²/d | DO: 5.2 ml/L
🏔️ 深度: 3725m
⚓ 水域: 公海
📍 距離: 1505 nm (150.5hr)
📊 【鰹魚（正鰹）】評分 32% — 主要優勢：
  1. 🫧 代謝指數(溫度×溶氧) (優) → 貢獻 51%
  2. 🌡️ 水溫適宜度 (優) → 貢獻 48%
  3. 🌊 穩定鋒面 (差) → 貢獻 1%
  4. 🌀 渦旋邊緣 (差) → 貢獻 0%
  5. 🍤 餌料可及性 (差) → 貢獻 0%]]></description>
<styleUrl>#s_low</styleUrl>
<Point><coordinates>144.25,10.5,0</coordinates></Point></Placemark>
</Folder>
</Folder>
<Folder><name>分析範圍</name><Placemark><styleUrl>#s_area</styleUrl>
<Polygon><outerBoundaryIs><LinearRing><coordinates>
120.0,5.0,0 175.0,5.0,0 175.0,35.0,0 120.0,35.0,0 120.0,5.0,0
</coordinates></LinearRing></outerBoundaryIs></Polygon></Placemark></Folder>
</Document>
</kml>