{
  "type": "FeatureCollection",
  "features": [
    {
      "type": "Feature",
      "geometry": {
        "type": "Point",
        "coordinates": [
          120.25,
          5.25
        ]
      },
      "properties": {
        "name": "#1 skipjack",
        "score": 100,
        "species": "skipjack",
        "distance_nm": 1195.5,
        "travel_hours": 119.6,
        "eez": "公海",
        "safety": "",
        "marker-color": "#e53935",
        "marker-size": "large",
        "marker-symbol": "harbor"
      }
    },
    {
      "type": "Feature",
      "geometry": {
        "type": "Point",
        "coordinates": [
          120.75,
          5.25
        ]
      },
      "properties": {
        "name": "#2 skipjack",
        "score": 100,
        "species": "skipjack",
        "distance_nm": 1194.0,
        "travel_hours": 119.4,
        "eez": "公海",
        "safety": "",
        "marker-color": "#e53935",
        "marker-size": "large",
        "marker-symbol": "harbor"
      }
    },
    {
      "type": "Feature",
      "geometry": {
        "type": "Point",
        "coordinates": [
          125.75,
          5.25
        ]
      },
      "properties": {
        "name": "#3 skipjack",
        "score": 100,
        "species": "skipjack",
        "distance_nm": 1212.5,
        "travel_hours": 121.3,
        "eez": "公海",
        "safety": "",
        "marker-color": "#e53935",
        "marker-size": "large",
        "marker-symbol": "harbor"
      }
    },
    {
      "type": "Feature",
      "geometry": {
        "type": "Point",
        "coordinates": [
          126.5,
          5.25
        ]
      },
      "properties": {
        "name": "#4 skipjack",
        "score": 100,
        "species": "skipjack",
        "distance_nm": 1220.5,
        "travel_hours": 122.1,
        "eez": "公海",
        "safety": "",
        "marker-color": "#e53935",
        "marker-size": "large",
        "marker-symbol": "harbor"
      }
    },
    {
      "type": "Feature",
      "geometry": {
        "type": "Point",
        "coordinates": [
          127.0,
          5.25
        ]
      },
      "properties": {
        "name": "#5 skipjack",
        "score": 100,
        "species": "skipjack",
        "distance_nm": 1226.5,
        "travel_hours": 122.7,
        "eez": "公海",
        "safety": "",
        "marker-color": "#e53935",
        "marker-size": "large",
        "marker-symbol": "harbor"
      }
    },
    {
      "type": "Feature",
      "geometry": {
        "type": "Point",
        "coordinates": [
          127.75,
          5.25
        ]
      },
      "properties": {
        "name": "#6 skipjack",
        "score": 100,
        "species": "skipjack",
        "distance_nm": 1236.7,
        "travel_hours": 123.7,
        "eez": "公海",
        "safety": "",
        "marker-color": "#e53935",
        "marker-size": "large",
        "marker-symbol": "harbor"
      }
    },
    {
      "type": "Feature",
      "geometry": {
        "type": "Point",
        "coordinates": [
          128.25,
          5.25
        ]
      },
      "properties": {
        "name": "#7 skipjack",
        "score": 100,
        "species": "skipjack",
        "distance_nm": 1244.1,
        "travel_hours": 124.4,
        "eez": "公海",
        "safety": "",
        "marker-color": "#e53935",
        "marker-size": "large",
        "marker-symbol": "harbor"
      }
    },
    {
      "type": "Feature",
      "geometry": {
        "type": "Point",
        "coordinates": [
          125.0,
          5.5
        ]
      },
      "properties": {
        "name": "#8 skipjack",
        "score": 100,
        "species": "skipjack",
        "distance_nm": 1191.0,
        "travel_hours": 119.1,
        "eez": "公海",
        "safety": "",
        "marker-color": "#e53935",
        "marker-size": "large",
        "marker-symbol": "harbor"
      }
    },
    {
      "type": "Feature",
      "geometry": {
        "type": "Point",
        "coordinates": [
          120.5,
          5.75
        ]
      },
      "properties": {
        "name": "#9 skipjack",
        "score": 100,
        "species": "skipjack",
        "distance_nm": 1164.7,
        "travel_hours": 116.5,
        "eez": "公海",
        "safety": "",
        "marker-color": "#e53935",
        "marker-size": "large",
        "marker-symbol": "harbor"
      }
    },
    {
      "type": "Feature",
      "geometry": {
        "type": "Point",
        "coordinates": [
          121.0,
          5.75
        ]
      },
      "properties": {
        "name": "#10 skipjack",
        "score": 100,
        "species": "skipjack",
        "distance_nm": 1163.5,
        "travel_hours": 116.3,
        "eez": "公海",
        "safety": "",
        "marker-color": "#e53935",
        "marker-size": "large",
        "marker-symbol": "harbor"
      }
    },
    {
      "type": "Feature",
      "geometry": {
        "type": "Point",
        "coordinates": [
          125.5,
          5.75
        ]
      },
      "properties": {
        "name": "#11 skipjack",
        "score": 100,
        "species": "skipjack",
        "distance_nm": 1180.6,
        "travel_hours": 118.1,
        "eez": "公海",
        "safety": "",
        "marker-color": "#e53935",
        "marker-size": "large",
        "marker-symbol": "harbor"
      }
    },
    {
      "type": "Feature",
      "geometry": {
        "type": "Point",
        "coordinates": [
          126.0,
          5.75
        ]
      },
      "properties": {
        "name": "#12 skipjack",
        "score": 100,
        "species": "skipjack",
        "distance_nm": 1185.6,
        "travel_hours": 118.6,
        "eez": "公海",
        "safety": "",
        "marker-color": "#e53935",
        "marker-size": "large",
        "marker-symbol": "harbor"
      }
    },
    {
      "type": "Feature",
      "geometry": {
        "type": "Point",
        "coordinates": [
          126.5,
          5.75
        ]
      },
      "properties": {
        "name": "#13 skipjack",
        "score": 100,
        "species": "skipjack",
        "distance_nm": 1191.2,
        "travel_hours": 119.1,
        "eez": "公海",
        "safety": "",
        "marker-color": "#e53935",
        "marker-size": "large",
        "marker-symbol": "harbor"
      }
    },
    {
      "type": "Feature",
      "geometry": {
        "type": "Point",
        "coordinates": [
          127.0,
          5.75
        ]
      },
      "properties": {
        "name": "#14 skipjack",
        "score": 100,
        "species": "skipjack",
        "distance_nm": 1197.4,
        "travel_hours": 119.7,
        "eez": "公海",
        "safety": "",
        "marker-color": "#e53935",
        "marker-size": "large",
        "marker-symbol": "harbor"
      }
    },
    {
      "type": "Feature",
      "geometry": {
        "type": "Point",
        "coordinates": [
          127.5,
          5.75
        ]
      },
      "properties": {
        "name": "#15 skipjack",
        "score": 100,
        "species": "skipjack",
        "distance_nm": 1204.2,
        "travel_hours": 120.4,
        "eez": "公海",
        "safety": "",
        "marker-color": "#e53935",
        "marker-size": "large",
        "marker-symbol": "harbor"
      }
    },
    {
      "type": "Feature",
      "geometry": {
        "type": "Point",
        "coordinates": [
          129.25,
          5.75
        ]
      },
      "properties": {
        "name": "#16 skipjack",
        "score": 100,
        "species": "skipjack",
        "distance_nm": 1232.3,
        "travel_hours": 123.2,
        "eez": "公海",
        "safety": "",
        "marker-color": "#e53935",
        "marker-size": "large",
        "marker-symbol": "harbor"
      }
    },
    {
      "type": "Feature",
      "geometry": {
        "type": "Point",
        "coordinates": [
          134.5,
          5.75
        ]
      },
      "properties": {
        "name": "#17 skipjack",
        "score": 100,
        "species": "skipjack",
        "distance_nm": 1353.7,
        "travel_hours": 135.4,
        "eez": "公海",
        "safety": "",
        "marker-color": "#e53935",
        "marker-size": "large",
        "marker-symbol": "harbor"
      }
    },
    {
      "type": "Feature",
      "geometry": {
        "type": "Point",
        "coordinates": [
          136.0,
          5.75
        ]
      },
      "properties": {
        "name": "#18 skipjack",
        "score": 100,
        "species": "skipjack",
        "distance_nm": 1397.2,
        "travel_hours": 139.7,
        "eez": "公海",
        "safety": "",
        "marker-color": "#e53935",
        "marker-size": "large",
        "marker-symbol": "harbor"
      }
    },
    {
      "type": "Feature",
      "geometry": {
        "type": "Point",
        "coordinates": [
          121.5,
          6.0
        ]
      },
      "properties": {
        "name": "#19 skipjack",
        "score": 100,
        "species": "skipjack",
        "distance_nm": 1147.9,
        "travel_hours": 114.8,
        "eez": "公海",
        "safety": "",
        "marker-color": "#e53935",
        "marker-size": "large",
        "marker-symbol": "harbor"
      }
    },
    {
      "type": "Feature",
      "geometry": {
        "type": "Point",
        "coordinates": [
          124.75,
          6.0
        ]
      },
      "properties": {
        "name": "#20 skipjack",
        "score": 100,
        "species": "skipjack",
        "distance_nm": 1159.4,
        "travel_hours": 115.9,
        "eez": "公海",
        "safety": "",
        "marker-color": "#e53935",
        "marker-size": "large",
        "marker-symbol": "harbor"
      }
    },
    {
      "type": "Feature",
      "geometry": {
        "type": "LineString",
        "coordinates": [
          [
            121.75,
            25.25
          ]
        ]
      },
      "properties": {
        "name": "建議航線",
        "type": "fuel_optimal",
        "distance_nm": 7.2,
        "time_hours": Infinity,
        "fuel_savings_pct": 0,
        "stroke": "#4fc3f7",
        "stroke-width": 3,
        "stroke-opacity": 0.8
      }
    }
  ],
  "properties": {
    "generator": "OceanMaster v9.0",
    "timestamp": "2026-02-13T21:41:58.757098+00:00",
    "n_hotspots": 20
  }
}