<?xml version="1.0" encoding="UTF-8"?>
<kml xmlns="http://www.opengis.net/kml/2.2">
<Document>
<name>🎣 OceanMaster v10.2 漁場預測</name>
<description>生成: 2026-02-13 21:01 UTC
⚠️ 本預測僅供參考，實際作業請依據船長經驗和即時觀測</description>
<Style id="s_best"><IconStyle><scale>1.3</scale><Icon><href>https://maps.google.com/mapfiles/kml/paddle/red-circle.png</href></Icon></IconStyle></Style>
<Style id="s_good"><IconStyle><scale>1.1</scale><Icon><href>https://maps.google.com/mapfiles/kml/paddle/orange-circle.png</href></Icon></IconStyle></Style>
<Style id="s_fair"><IconStyle><scale>0.9</scale><Icon><href>https://maps.google.com/mapfiles/kml/paddle/ylw-circle.png</href></Icon></IconStyle></Style>
<Style id="s_low"><IconStyle><scale>0.7</scale><Icon><href>https://maps.google.com/mapfiles/kml/paddle/wht-circle.png</href></Icon></IconStyle></Style>
<Style id="s_area"><PolyStyle><color>20ffffff</color><outline>1</outline></PolyStyle><LineStyle><color>ff0088ff</color><width>1</width></LineStyle></Style>
<LookAt><longitude>127.5</longitude><latitude>21.5</latitude><range>2500000</range></LookAt>
<Folder><name>🎯 v10.2 漁場熱點</name><open>1</open>
<description>Φ(Deutsch2015真實計算) + SEAPODYM棲息地 + 營養鏈
Φ不截斷 + EEZ地理校正 + HSI幾何平均
生成: 2026-02-13 21:01 UTC</description>
<Folder><name>鰹魚</name>
<Placemark><name>#1 鰹魚 (100%)</name>
<description><![CDATA[【v10.2 商業級分析】🔴最佳
═══ 綜合 HSI: 100% ═══
🧬 代謝指數Φ: 7.79 ✅充足 (Φ_crit=3.0)
Φ真實計算: Deutsch 2015 (非截斷)
🌡️ SST: N/A
🌿 NPP: 5000 mgC/m²/d | DO: 4.8 ml/L
🏔️ 深度: -5m
⚓ 水域: 菲律賓EEZ
EEZ驗證: 外國漁船需特別許可
📍 距離: 554 nm (55.4hr)
📊 【鰹魚（正鰹）】評分 100% — 主要優勢：
  1. 🍤 餌料可及性 (優) → 貢獻 36%
  2. 🫧 代謝指數(溫度×溶氧) (優) → 貢獻 33%
  3. 🌡️ 水溫適宜度 (優) → 貢獻 30%
  4. 🌊 穩定鋒面 (差) → 貢獻 1%]]></description>
<styleUrl>#s_best</styleUrl>
<Point><coordinates>120.25,16.0,0</coordinates></Point></Placemark>
<Placemark><name>#2 鰹魚 (100%)</name>
<description><![CDATA[【v10.2 商業級分析】🔴最佳
═══ 綜合 HSI: 100% ═══
🧬 代謝指數Φ: 9.61 ✅充足 (Φ_crit=3.0)
Φ真實計算: Deutsch 2015 (非截斷)
🌡️ SST: N/A
🌿 NPP: 5000 mgC/m²/d | DO: 4.7 ml/L
🏔️ 深度: 10m
⚓ 水域: 菲律賓EEZ
EEZ驗證: 外國漁船需特別許可
📍 距離: 524 nm (52.4hr)
📊 【鰹魚（正鰹）】評分 100% — 主要優勢：
  1. 🍤 餌料可及性 (優) → 貢獻 38%
  2. 🫧 代謝指數(溫度×溶氧) (優) → 貢獻 31%
  3. 🌡️ 水溫適宜度 (優) → 貢獻 29%
  4. 🌊 穩定鋒面 (差) → 貢獻 2%]]></description>
<styleUrl>#s_best</styleUrl>
<Point><coordinates>120.25,16.5,0</coordinates></Point></Placemark>
<Placemark><name>#3 鰹魚 (100%)</name>
<description><![CDATA[【v10.2 商業級分析】🔴最佳
═══ 綜合 HSI: 100% ═══
🧬 代謝指數Φ: 9.39 ✅充足 (Φ_crit=3.0)
Φ真實計算: Deutsch 2015 (非截斷)
🌡️ SST: N/A
🌿 NPP: 5000 mgC/m²/d | DO: 4.7 ml/L
🏔️ 深度: 1094m
⚓ 水域: 菲律賓EEZ
EEZ驗證: 外國漁船需特別許可
📍 距離: 494 nm (49.4hr)
📊 【鰹魚（正鰹）】評分 100% — 主要優勢：
  1. 🍤 餌料可及性 (優) → 貢獻 38%
  2. 🫧 代謝指數(溫度×溶氧) (優) → 貢獻 31%
  3. 🌡️ 水溫適宜度 (優) → 貢獻 30%
  4. 🌊 穩定鋒面 (差) → 貢獻 1%]]></description>
<styleUrl>#s_best</styleUrl>
<Point><coordinates>120.25,17.0,0</coordinates></Point></Placemark>
<Placemark><name>#4 鰹魚 (100%)</name>
<description><![CDATA[【v10.2 商業級分析】🔴最佳
═══ 綜合 HSI: 100% ═══
🧬 代謝指數Φ: 9.01 ✅充足 (Φ_crit=3.0)
Φ真實計算: Deutsch 2015 (非截斷)
🌡️ SST: N/A
🌿 NPP: 1182 mgC/m²/d | DO: 4.6 ml/L
🏔️ 深度: 824m
⚓ 水域: 菲律賓EEZ
EEZ驗證: 外國漁船需特別許可
📍 距離: 475 nm (47.5hr)
📊 【鰹魚（正鰹）】評分 100% — 主要優勢：
  1. 🫧 代謝指數(溫度×溶氧) (優) → 貢獻 43%
  2. 🌡️ 水溫適宜度 (優) → 貢獻 43%
  3. 🍤 餌料可及性 (差) → 貢獻 12%
  4. 🌊 穩定鋒面 (差) → 貢獻 2%]]></description>
<styleUrl>#s_best</styleUrl>
<Point><coordinates>122.5,17.25,0</coordinates></Point></Placemark>
<Placemark><name>#5 鰹魚 (100%)</name>
<description><![CDATA[【v10.2 商業級分析】🔴最佳
═══ 綜合 HSI: 100% ═══
🧬 代謝指數Φ: 9.39 ✅充足 (Φ_crit=3.0)
Φ真實計算: Deutsch 2015 (非截斷)
🌡️ SST: N/A
🌿 NPP: 5000 mgC/m²/d | DO: 4.7 ml/L
🏔️ 深度: 961m
⚓ 水域: 菲律賓EEZ
EEZ驗證: 外國漁船需特別許可
📍 距離: 465 nm (46.5hr)
📊 【鰹魚（正鰹）】評分 100% — 主要優勢：
  1. 🍤 餌料可及性 (優) → 貢獻 38%
  2. 🫧 代謝指數(溫度×溶氧) (優) → 貢獻 31%
  3. 🌡️ 水溫適宜度 (優) → 貢獻 30%
  4. 🌊 穩定鋒面 (差) → 貢獻 1%]]></description>
<styleUrl>#s_best</styleUrl>
<Point><coordinates>120.25,17.5,0</coordinates></Point></Placemark>
</Folder>
<Folder><name>黃鰭鮪</name>
<Placemark><name>#1 黃鰭鮪 (100%)</name>
<description><![CDATA[【v10.2 商業級分析】🔴最佳
═══ 綜合 HSI: 100% ═══
🧬 代謝指數Φ: 8.83 ✅充足 (Φ_crit=3.0)
Φ真實計算: Deutsch 2015 (非截斷)
🌡️ SST: N/A
🌿 NPP: 806 mgC/m²/d | DO: 4.7 ml/L
🏔️ 深度: -345m
⚓ 水域: 菲律賓EEZ
EEZ驗證: 外國漁船需特別許可
📍 距離: 608 nm (60.8hr)
📊 【黃鰭鮪】評分 100% — 主要優勢：
  1. 🫧 代謝指數(溫度×溶氧) (優) → 貢獻 45%
  2. 🌡️ 水溫適宜度 (優) → 貢獻 45%
  3. 🍤 餌料可及性 (差) → 貢獻 9%
  4. 🌊 穩定鋒面 (差) → 貢獻 1%]]></description>
<styleUrl>#s_best</styleUrl>
<Point><coordinates>121.5,15.0,0</coordinates></Point></Placemark>
<Placemark><name>#2 黃鰭鮪 (100%)</name>
<description><![CDATA[【v10.2 商業級分析】🔴最佳
═══ 綜合 HSI: 100% ═══
🧬 代謝指數Φ: 8.93 ✅充足 (Φ_crit=3.0)
Φ真實計算: Deutsch 2015 (非截斷)
🌡️ SST: N/A
🌿 NPP: 5000 mgC/m²/d | DO: 4.8 ml/L
🏔️ 深度: -5m
⚓ 水域: 菲律賓EEZ
EEZ驗證: 外國漁船需特別許可
📍 距離: 554 nm (55.4hr)
📊 【黃鰭鮪】評分 100% — 主要優勢：
  1. 🍤 餌料可及性 (優) → 貢獻 34%
  2. 🫧 代謝指數(溫度×溶氧) (優) → 貢獻 33%
  3. 🌡️ 水溫適宜度 (優) → 貢獻 32%
  4. 🌊 穩定鋒面 (差) → 貢獻 1%]]></description>
<styleUrl>#s_best</styleUrl>
<Point><coordinates>120.25,16.0,0</coordinates></Point></Placemark>
<Placemark><name>#3 黃鰭鮪 (100%)</name>
<description><![CDATA[【v10.2 商業級分析】🔴最佳
═══ 綜合 HSI: 100% ═══
🧬 代謝指數Φ: 10.81 ✅充足 (Φ_crit=3.0)
Φ真實計算: Deutsch 2015 (非截斷)
🌡️ SST: N/A
🌿 NPP: 5000 mgC/m²/d | DO: 4.7 ml/L
🏔️ 深度: 10m
⚓ 水域: 菲律賓EEZ
EEZ驗證: 外國漁船需特別許可
📍 距離: 524 nm (52.4hr)
📊 【黃鰭鮪】評分 100% — 主要優勢：
  1. 🍤 餌料可及性 (優) → 貢獻 38%
  2. 🫧 代謝指數(溫度×溶氧) (優) → 貢獻 36%
  3. 🌡️ 水溫適宜度 (良) → 貢獻 25%
  4. 🌊 穩定鋒面 (差) → 貢獻 2%]]></description>
<styleUrl>#s_best</styleUrl>
<Point><coordinates>120.25,16.5,0</coordinates></Point></Placemark>
<Placemark><name>#4 黃鰭鮪 (100%)</name>
<description><![CDATA[【v10.2 商業級分析】🔴最佳
═══ 綜合 HSI: 100% ═══
🧬 代謝指數Φ: 10.59 ✅充足 (Φ_crit=3.0)
Φ真實計算: Deutsch 2015 (非截斷)
🌡️ SST: N/A
🌿 NPP: 5000 mgC/m²/d | DO: 4.7 ml/L
🏔️ 深度: 1094m
⚓ 水域: 菲律賓EEZ
EEZ驗證: 外國漁船需特別許可
📍 距離: 494 nm (49.4hr)
📊 【黃鰭鮪】評分 100% — 主要優勢：
  1. 🍤 餌料可及性 (優) → 貢獻 40%
  2. 🫧 代謝指數(溫度×溶氧) (優) → 貢獻 34%
  3. 🌡️ 水溫適宜度 (優) → 貢獻 25%
  4. 🌊 穩定鋒面 (差) → 貢獻 1%]]></description>
<styleUrl>#s_best</styleUrl>
<Point><coordinates>120.25,17.0,0</coordinates></Point></Placemark>
<Placemark><name>#5 黃鰭鮪 (100%)</name>
<description><![CDATA[【v10.2 商業級分析】🔴最佳
═══ 綜合 HSI: 100% ═══
🧬 代謝指數Φ: 9.17 ✅充足 (Φ_crit=3.0)
Φ真實計算: Deutsch 2015 (非截斷)
🌡️ SST: N/A
🌿 NPP: 5000 mgC/m²/d | DO: 4.8 ml/L
🏔️ 深度: -761m
⚓ 水域: 菲律賓EEZ
EEZ驗證: 外國漁船需特別許可
📍 距離: 476 nm (47.6hr)
📊 【黃鰭鮪】評分 100% — 主要優勢：
  1. 🍤 餌料可及性 (優) → 貢獻 38%
  2. 🫧 代謝指數(溫度×溶氧) (優) → 貢獻 31%
  3. 🌡️ 水溫適宜度 (優) → 貢獻 31%]]></description>
<styleUrl>#s_best</styleUrl>
<Point><coordinates>120.75,17.25,0</coordinates></Point></Placemark>
</Folder>
<Folder><name>大目鮪</name>
<Placemark><name>#1 大目鮪 (100%)</name>
<description><![CDATA[【v10.2 商業級分析】🔴最佳
═══ 綜合 HSI: 100% ═══
🧬 代謝指數Φ: 13.11 ✅充足 (Φ_crit=3.5)
Φ真實計算: Deutsch 2015 (非截斷)
🌡️ SST: N/A
🌿 NPP: 5000 mgC/m²/d | DO: 4.8 ml/L
🏔️ 深度: 1m
⚓ 水域: 台灣EEZ
EEZ驗證: 台灣籍漁船免許可
📍 距離: 86 nm (8.6hr)
📊 【大目鮪】評分 100% — 主要優勢：
  1. 🍤 餌料可及性 (優) → 貢獻 38%
  2. 🫧 代謝指數(溫度×溶氧) (優) → 貢獻 32%
  3. 🌡️ 水溫適宜度 (優) → 貢獻 26%
  4. 🌊 穩定鋒面 (良) → 貢獻 4%]]></description>
<styleUrl>#s_best</styleUrl>
<Point><coordinates>120.5,24.25,0</coordinates></Point></Placemark>
<Placemark><name>#2 大目鮪 (100%)</name>
<description><![CDATA[【v10.2 商業級分析】🔴最佳
═══ 綜合 HSI: 100% ═══
🧬 代謝指數Φ: 13.10 ✅充足 (Φ_crit=3.5)
Φ真實計算: Deutsch 2015 (非截斷)
🌡️ SST: N/A
🌿 NPP: 5000 mgC/m²/d | DO: 5.5 ml/L
🏔️ 深度: -90m
⚓ 水域: 台灣EEZ
EEZ驗證: 台灣籍漁船免許可
📍 距離: 15 nm (1.5hr)
📊 【大目鮪】評分 100% — 主要優勢：
  1. 🍤 餌料可及性 (優) → 貢獻 38%
  2. 🫧 代謝指數(溫度×溶氧) (優) → 貢獻 31%
  3. 🌡️ 水溫適宜度 (優) → 貢獻 26%
  4. 🌊 穩定鋒面 (優) → 貢獻 5%]]></description>
<styleUrl>#s_best</styleUrl>
<Point><coordinates>121.5,25.25,0</coordinates></Point></Placemark>
<Placemark><name>#3 大目鮪 (100%)</name>
<description><![CDATA[【v10.2 商業級分析】🔴最佳
═══ 綜合 HSI: 100% ═══
🧬 代謝指數Φ: 12.42 ✅充足 (Φ_crit=3.5)
Φ真實計算: Deutsch 2015 (非截斷)
🌡️ SST: N/A
🌿 NPP: 5000 mgC/m²/d | DO: 5.2 ml/L
🏔️ 深度: 134m
⚓ 水域: 公海
📍 距離: 83 nm (8.3hr)
📊 【大目鮪】評分 100% — 主要優勢：
  1. 🍤 餌料可及性 (優) → 貢獻 36%
  2. 🫧 代謝指數(溫度×溶氧) (優) → 貢獻 30%
  3. 🌡️ 水溫適宜度 (優) → 貢獻 28%
  4. 🌊 穩定鋒面 (優) → 貢獻 6%]]></description>
<styleUrl>#s_best</styleUrl>
<Point><coordinates>122.0,26.5,0</coordinates></Point></Placemark>
<Placemark><name>#4 大目鮪 (99%)</name>
<description><![CDATA[【v10.2 商業級分析】🔴最佳
═══ 綜合 HSI: 99% ═══
🧬 代謝指數Φ: 14.23 ✅充足 (Φ_crit=3.5)
Φ真實計算: Deutsch 2015 (非截斷)
🌡️ SST: N/A
🌿 NPP: 4883 mgC/m²/d | DO: 4.8 ml/L
🏔️ 深度: -7m
⚓ 水域: 台灣EEZ
EEZ驗證: 台灣籍漁船免許可
📍 距離: 116 nm (11.6hr)
📊 【大目鮪】評分 99% — 主要優勢：
  1. 🍤 餌料可及性 (優) → 貢獻 39%
  2. 🫧 代謝指數(溫度×溶氧) (優) → 貢獻 33%
  3. 🌡️ 水溫適宜度 (良) → 貢獻 21%
  4. 🌀 渦旋邊緣 (良) → 貢獻 3%
  5. 🌊 穩定鋒面 (良) → 貢獻 3%]]></description>
<styleUrl>#s_best</styleUrl>
<Point><coordinates>120.25,23.75,0</coordinates></Point></Placemark>
<Placemark><name>#5 大目鮪 (98%)</name>
<description><![CDATA[【v10.2 商業級分析】🔴最佳
═══ 綜合 HSI: 98% ═══
🧬 代謝指數Φ: 12.89 ✅充足 (Φ_crit=3.5)
Φ真實計算: Deutsch 2015 (非截斷)
🌡️ SST: N/A
🌿 NPP: 3555 mgC/m²/d | DO: 4.9 ml/L
🏔️ 深度: 143m
⚓ 水域: 日本EEZ
EEZ驗證: 需日本政府許可證
📍 距離: 159 nm (15.9hr)
📊 【大目鮪】評分 98% — 主要優勢：
  1. 🫧 代謝指數(溫度×溶氧) (優) → 貢獻 36%
  2. 🌡️ 水溫適宜度 (優) → 貢獻 31%
  3. 🍤 餌料可及性 (良) → 貢獻 29%
  4. 🌊 穩定鋒面 (良) → 貢獻 3%]]></description>
<styleUrl>#s_best</styleUrl>
<Point><coordinates>124.25,26.5,0</coordinates></Point></Placemark>
</Folder>
<Folder><name>長鰭鮪</name>
<Placemark><name>#1 長鰭鮪 (19%)</name>
<description><![CDATA[【v10.2 商業級分析】⚪偏低
═══ 綜合 HSI: 19% ═══
🧬 代謝指數Φ: 5.00 ✅充足 (Φ_crit=3.5)
Φ真實計算: Deutsch 2015 (非截斷)
🌡️ SST: N/A
🌿 NPP: 962 mgC/m²/d | DO: 5.1 ml/L
🏔️ 深度: 3485m
⚓ 水域: 公海
📍 距離: 714 nm (71.4hr)]]></description>
<styleUrl>#s_low</styleUrl>
<Point><coordinates>134.5,28.0,0</coordinates></Point></Placemark>
<Placemark><name>#2 長鰭鮪 (19%)</name>
<description><![CDATA[【v10.2 商業級分析】⚪偏低
═══ 綜合 HSI: 19% ═══
🧬 代謝指數Φ: 5.00 ✅充足 (Φ_crit=3.5)
Φ真實計算: Deutsch 2015 (非截斷)
🌡️ SST: N/A
🌿 NPP: 939 mgC/m²/d | DO: 5.0 ml/L
🏔️ 深度: 4366m
⚓ 水域: 公海
📍 距離: 737 nm (73.7hr)]]></description>
<styleUrl>#s_low</styleUrl>
<Point><coordinates>135.0,27.75,0</coordinates></Point></Placemark>
<Placemark><name>#3 長鰭鮪 (18%)</name>
<description><![CDATA[【v10.2 商業級分析】⚪偏低
═══ 綜合 HSI: 18% ═══
🧬 代謝指數Φ: 5.00 ✅充足 (Φ_crit=3.5)
Φ真實計算: Deutsch 2015 (非截斷)
🌡️ SST: N/A
🌿 NPP: 941 mgC/m²/d | DO: 5.0 ml/L
🏔️ 深度: 4687m
⚓ 水域: 公海
📍 距離: 694 nm (69.4hr)]]></description>
<styleUrl>#s_low</styleUrl>
<Point><coordinates>134.25,27.5,0</coordinates></Point></Placemark>
<Placemark><name>#4 長鰭鮪 (18%)</name>
<description><![CDATA[【v10.2 商業級分析】⚪偏低
═══ 綜合 HSI: 18% ═══
🧬 代謝指數Φ: 5.00 ✅充足 (Φ_crit=3.5)
Φ真實計算: Deutsch 2015 (非截斷)
🌡️ SST: N/A
🌿 NPP: 944 mgC/m²/d | DO: 5.0 ml/L
🏔️ 深度: 2493m
⚓ 水域: 公海
📍 距離: 731 nm (73.1hr)]]></description>
<styleUrl>#s_low</styleUrl>
<Point><coordinates>135.0,27.25,0</coordinates></Point></Placemark>
<Placemark><name>#5 長鰭鮪 (17%)</name>
<description><![CDATA[【v10.2 商業級分析】⚪偏低
═══ 綜合 HSI: 17% ═══
🧬 代謝指數Φ: 5.00 ✅充足 (Φ_crit=3.5)
Φ真實計算: Deutsch 2015 (非截斷)
🌡️ SST: N/A
🌿 NPP: 946 mgC/m²/d | DO: 5.0 ml/L
🏔️ 深度: 3166m
⚓ 水域: 公海
📍 距離: 727 nm (72.7hr)]]></description>
<styleUrl>#s_low</styleUrl>
<Point><coordinates>135.0,26.75,0</coordinates></Point></Placemark>
</Folder>
</Folder>
<Folder><name>分析範圍</name><Placemark><styleUrl>#s_area</styleUrl>
<Polygon><outerBoundaryIs><LinearRing><coordinates>
120.0,15.0,0 135.0,15.0,0 135.0,28.0,0 120.0,28.0,0 120.0,15.0,0
</coordinates></LinearRing></outerBoundaryIs></Polygon></Placemark></Folder>
</Document>
</kml>