<?xml version="1.0" encoding="UTF-8"?>
<kml xmlns="http://www.opengis.net/kml/2.2">
<Document>
<name>🎣 OceanMaster v10.2 漁場預測</name>
<description>生成: 2026-02-14 00:33 UTC
⚠️ 本預測僅供參考，實際作業請依據船長經驗和即時觀測</description>
<Style id="s_best"><IconStyle><scale>1.3</scale><Icon><href>https://maps.google.com/mapfiles/kml/paddle/red-circle.png</href></Icon></IconStyle></Style>
<Style id="s_good"><IconStyle><scale>1.1</scale><Icon><href>https://maps.google.com/mapfiles/kml/paddle/orange-circle.png</href></Icon></IconStyle></Style>
<Style id="s_fair"><IconStyle><scale>0.9</scale><Icon><href>https://maps.google.com/mapfiles/kml/paddle/ylw-circle.png</href></Icon></IconStyle></Style>
<Style id="s_low"><IconStyle><scale>0.7</scale><Icon><href>https://maps.google.com/mapfiles/kml/paddle/wht-circle.png</href></Icon></IconStyle></Style>
<Style id="s_area"><PolyStyle><color>20ffffff</color><outline>1</outline></PolyStyle><LineStyle><color>ff0088ff</color><width>1</width></LineStyle></Style>
<LookAt><longitude>147.5</longitude><latitude>20.0</latitude><range>2500000</range></LookAt>
<Folder><name>🎯 v10.2 漁場熱點</name><open>1</open>
<description>Φ(Deutsch2015真實計算) + SEAPODYM棲息地 + 營養鏈
Φ不截斷 + EEZ地理校正 + HSI幾何平均
生成: 2026-02-14 00:33 UTC</description>
<Folder><name>鰹魚</name>
<Placemark><name>#1 鰹魚 (100%)</name>
<description><![CDATA[【v10.2 商業級分析】🔴最佳
═══ 綜合 HSI: 100% ═══
🧬 代謝指數Φ: 7.47 ✅充足 (Φ_crit=3.0)
Φ真實計算: Deutsch 2015 (非截斷)
🌡️ SST: N/A
🌿 NPP: 5000 mgC/m²/d | DO: 4.8 ml/L
🏔️ 深度: -132m
⚓ 水域: 菲律賓EEZ
EEZ驗證: 外國漁船需特別許可
📍 距離: 613 nm (61.3hr)
📊 【正鰹】預測依據：
  1. 🌱初級生產力 ↑ (貢獻 99%)
  2. 🌡️海表溫度 ↑ (貢獻 1%)
  3. 💨溶解氧 ↑ (貢獻 0%)
  4. 🍤餌料可及性 ↑ (貢獻 0%)]]></description>
<styleUrl>#s_best</styleUrl>
<Point><coordinates>120.25,15.0,0</coordinates></Point></Placemark>
<Placemark><name>#2 鰹魚 (100%)</name>
<description><![CDATA[【v10.2 商業級分析】🔴最佳
═══ 綜合 HSI: 100% ═══
🧬 代謝指數Φ: 7.41 ✅充足 (Φ_crit=3.0)
Φ真實計算: Deutsch 2015 (非截斷)
🌡️ SST: N/A
🌿 NPP: 5000 mgC/m²/d | DO: 4.8 ml/L
🏔️ 深度: -457m
⚓ 水域: 菲律賓EEZ
EEZ驗證: 外國漁船需特別許可
📍 距離: 608 nm (60.8hr)
📊 【正鰹】預測依據：
  1. 🌱初級生產力 ↑ (貢獻 99%)
  2. 🌡️海表溫度 ↑ (貢獻 1%)
  3. 💨溶解氧 ↑ (貢獻 0%)
  4. 🍤餌料可及性 ↑ (貢獻 0%)]]></description>
<styleUrl>#s_best</styleUrl>
<Point><coordinates>121.25,15.0,0</coordinates></Point></Placemark>
<Placemark><name>#3 鰹魚 (100%)</name>
<description><![CDATA[【v10.2 商業級分析】🔴最佳
═══ 綜合 HSI: 100% ═══
🧬 代謝指數Φ: 8.85 ✅充足 (Φ_crit=3.0)
Φ真實計算: Deutsch 2015 (非截斷)
🌡️ SST: N/A
🌿 NPP: 3997 mgC/m²/d | DO: 4.7 ml/L
🏔️ 深度: 257m
⚓ 水域: 菲律賓EEZ
EEZ驗證: 外國漁船需特別許可
📍 距離: 608 nm (60.8hr)
📊 【正鰹】預測依據：
  1. 🌱初級生產力 ↑ (貢獻 98%)
  2. 🌡️海表溫度 ↑ (貢獻 1%)
  3. 💨溶解氧 ↑ (貢獻 0%)
  4. 🫧代謝可行性 ↑ (貢獻 0%)]]></description>
<styleUrl>#s_best</styleUrl>
<Point><coordinates>121.75,15.0,0</coordinates></Point></Placemark>
<Placemark><name>#4 鰹魚 (100%)</name>
<description><![CDATA[【v10.2 商業級分析】🔴最佳
═══ 綜合 HSI: 100% ═══
🧬 代謝指數Φ: 9.63 ✅充足 (Φ_crit=3.0)
Φ真實計算: Deutsch 2015 (非截斷)
🌡️ SST: N/A
🌿 NPP: 5000 mgC/m²/d | DO: 4.7 ml/L
🏔️ 深度: 10m
⚓ 水域: 菲律賓EEZ
EEZ驗證: 外國漁船需特別許可
📍 距離: 539 nm (53.9hr)
📊 【正鰹】預測依據：
  1. 🌱初級生產力 ↑ (貢獻 99%)
  2. 🌡️海表溫度 ↑ (貢獻 1%)
  3. 💨溶解氧 ↑ (貢獻 0%)
  4. 🍤餌料可及性 ↑ (貢獻 0%)]]></description>
<styleUrl>#s_best</styleUrl>
<Point><coordinates>120.25,16.25,0</coordinates></Point></Placemark>
<Placemark><name>#5 鰹魚 (100%)</name>
<description><![CDATA[【v10.2 商業級分析】🔴最佳
═══ 綜合 HSI: 100% ═══
🧬 代謝指數Φ: 9.39 ✅充足 (Φ_crit=3.0)
Φ真實計算: Deutsch 2015 (非截斷)
🌡️ SST: N/A
🌿 NPP: 5000 mgC/m²/d | DO: 4.7 ml/L
🏔️ 深度: 328m
⚓ 水域: 菲律賓EEZ
EEZ驗證: 外國漁船需特別許可
📍 距離: 509 nm (50.9hr)
📊 【正鰹】預測依據：
  1. 🌱初級生產力 ↑ (貢獻 99%)
  2. 🌡️海表溫度 ↑ (貢獻 1%)
  3. 💨溶解氧 ↑ (貢獻 0%)
  4. 🍤餌料可及性 ↑ (貢獻 0%)]]></description>
<styleUrl>#s_best</styleUrl>
<Point><coordinates>120.25,16.75,0</coordinates></Point></Placemark>
<Placemark><name>#6 鰹魚 (100%)</name>
<description><![CDATA[【v10.2 商業級分析】🔴最佳
═══ 綜合 HSI: 100% ═══
🧬 代謝指數Φ: 9.10 ✅充足 (Φ_crit=3.0)
Φ真實計算: Deutsch 2015 (非截斷)
🌡️ SST: N/A
🌿 NPP: 914 mgC/m²/d | DO: 4.8 ml/L
🏔️ 深度: 14m
⚓ 水域: 菲律賓EEZ
EEZ驗證: 外國漁船需特別許可
📍 距離: 490 nm (49.0hr)
📊 【正鰹】預測依據：
  1. 🌱初級生產力 ↑ (貢獻 93%)
  2. 🌡️海表溫度 ↑ (貢獻 6%)
  3. 💨溶解氧 ↑ (貢獻 0%)
  4. 🫧代謝可行性 ↑ (貢獻 0%)]]></description>
<styleUrl>#s_best</styleUrl>
<Point><coordinates>122.5,17.0,0</coordinates></Point></Placemark>
<Placemark><name>#7 鰹魚 (100%)</name>
<description><![CDATA[【v10.2 商業級分析】🔴最佳
═══ 綜合 HSI: 100% ═══
🧬 代謝指數Φ: 9.44 ✅充足 (Φ_crit=3.0)
Φ真實計算: Deutsch 2015 (非截斷)
🌡️ SST: N/A
🌿 NPP: 830 mgC/m²/d | DO: 4.7 ml/L
🏔️ 深度: 1215m
⚓ 水域: 菲律賓EEZ
EEZ驗證: 外國漁船需特別許可
📍 距離: 480 nm (48.0hr)
📊 【正鰹】預測依據：
  1. 🌱初級生產力 ↑ (貢獻 92%)
  2. 🌡️海表溫度 ↑ (貢獻 7%)
  3. 💨溶解氧 ↑ (貢獻 0%)
  4. 🫧代謝可行性 ↑ (貢獻 0%)]]></description>
<styleUrl>#s_best</styleUrl>
<Point><coordinates>120.25,17.25,0</coordinates></Point></Placemark>
<Placemark><name>#8 鰹魚 (100%)</name>
<description><![CDATA[【v10.2 商業級分析】🔴最佳
═══ 綜合 HSI: 100% ═══
🧬 代謝指數Φ: 8.88 ✅充足 (Φ_crit=3.0)
Φ真實計算: Deutsch 2015 (非截斷)
🌡️ SST: N/A
🌿 NPP: 966 mgC/m²/d | DO: 4.5 ml/L
🏔️ 深度: 2339m
⚓ 水域: 菲律賓EEZ
EEZ驗證: 外國漁船需特別許可
📍 距離: 460 nm (46.0hr)
📊 【正鰹】預測依據：
  1. 🌱初級生產力 ↑ (貢獻 93%)
  2. 🌡️海表溫度 ↑ (貢獻 6%)
  3. 💨溶解氧 ↑ (貢獻 0%)
  4. 🫧代謝可行性 ↑ (貢獻 0%)]]></description>
<styleUrl>#s_best</styleUrl>
<Point><coordinates>122.5,17.5,0</coordinates></Point></Placemark>
<Placemark><name>#9 鰹魚 (100%)</name>
<description><![CDATA[【v10.2 商業級分析】🔴最佳
═══ 綜合 HSI: 100% ═══
🧬 代謝指數Φ: 9.30 ✅充足 (Φ_crit=3.0)
Φ真實計算: Deutsch 2015 (非截斷)
🌡️ SST: N/A
🌿 NPP: 862 mgC/m²/d | DO: 4.7 ml/L
🏔️ 深度: 1117m
⚓ 水域: 菲律賓EEZ
EEZ驗證: 外國漁船需特別許可
📍 距離: 450 nm (45.0hr)
📊 【正鰹】預測依據：
  1. 🌱初級生產力 ↑ (貢獻 92%)
  2. 🌡️海表溫度 ↑ (貢獻 6%)
  3. 💨溶解氧 ↑ (貢獻 0%)
  4. 🫧代謝可行性 ↑ (貢獻 0%)]]></description>
<styleUrl>#s_best</styleUrl>
<Point><coordinates>120.25,17.75,0</coordinates></Point></Placemark>
<Placemark><name>#10 鰹魚 (100%)</name>
<description><![CDATA[【v10.2 商業級分析】🔴最佳
═══ 綜合 HSI: 100% ═══
🧬 代謝指數Φ: 8.96 ✅充足 (Φ_crit=3.0)
Φ真實計算: Deutsch 2015 (非截斷)
🌡️ SST: N/A
🌿 NPP: 943 mgC/m²/d | DO: 4.6 ml/L
🏔️ 深度: 1053m
⚓ 水域: 菲律賓EEZ
EEZ驗證: 外國漁船需特別許可
📍 距離: 429 nm (42.9hr)
📊 【正鰹】預測依據：
  1. 🌱初級生產力 ↑ (貢獻 93%)
  2. 🌡️海表溫度 ↑ (貢獻 6%)
  3. 💨溶解氧 ↑ (貢獻 0%)
  4. 🫧代謝可行性 ↑ (貢獻 0%)]]></description>
<styleUrl>#s_best</styleUrl>
<Point><coordinates>122.25,18.0,0</coordinates></Point></Placemark>
<Placemark><name>#11 鰹魚 (100%)</name>
<description><![CDATA[【v10.2 商業級分析】🔴最佳
═══ 綜合 HSI: 100% ═══
🧬 代謝指數Φ: 9.32 ✅充足 (Φ_crit=3.0)
Φ真實計算: Deutsch 2015 (非截斷)
🌡️ SST: N/A
🌿 NPP: 856 mgC/m²/d | DO: 4.7 ml/L
🏔️ 深度: 36m
⚓ 水域: 菲律賓EEZ
EEZ驗證: 外國漁船需特別許可
📍 距離: 418 nm (41.8hr)
📊 【正鰹】預測依據：
  1. 🌱初級生產力 ↑ (貢獻 92%)
  2. 🌡️海表溫度 ↑ (貢獻 7%)
  3. 💨溶解氧 ↑ (貢獻 0%)
  4. 🫧代謝可行性 ↑ (貢獻 0%)]]></description>
<styleUrl>#s_best</styleUrl>
<Point><coordinates>120.5,18.25,0</coordinates></Point></Placemark>
<Placemark><name>#12 鰹魚 (100%)</name>
<description><![CDATA[【v10.2 商業級分析】🔴最佳
═══ 綜合 HSI: 100% ═══
🧬 代謝指數Φ: 8.75 ✅充足 (Φ_crit=3.0)
Φ真實計算: Deutsch 2015 (非截斷)
🌡️ SST: N/A
🌿 NPP: 992 mgC/m²/d | DO: 4.7 ml/L
🏔️ 深度: 207m
⚓ 水域: 菲律賓EEZ
EEZ驗證: 外國漁船需特別許可
📍 距離: 398 nm (39.8hr)
📊 【正鰹】預測依據：
  1. 🌱初級生產力 ↑ (貢獻 94%)
  2. 🌡️海表溫度 ↑ (貢獻 5%)
  3. 💨溶解氧 ↑ (貢獻 0%)
  4. 🫧代謝可行性 ↑ (貢獻 0%)]]></description>
<styleUrl>#s_best</styleUrl>
<Point><coordinates>122.0,18.5,0</coordinates></Point></Placemark>
<Placemark><name>#13 鰹魚 (100%)</name>
<description><![CDATA[【v10.2 商業級分析】🔴最佳
═══ 綜合 HSI: 100% ═══
🧬 代謝指數Φ: 9.01 ✅充足 (Φ_crit=3.0)
Φ真實計算: Deutsch 2015 (非截斷)
🌡️ SST: N/A
🌿 NPP: 928 mgC/m²/d | DO: 4.7 ml/L
🏔️ 深度: 2950m
⚓ 水域: 菲律賓EEZ
EEZ驗證: 外國漁船需特別許可
📍 距離: 391 nm (39.1hr)
📊 【正鰹】預測依據：
  1. 🌱初級生產力 ↑ (貢獻 93%)
  2. 🌡️海表溫度 ↑ (貢獻 6%)
  3. 💨溶解氧 ↑ (貢獻 0%)
  4. 🫧代謝可行性 ↑ (貢獻 0%)]]></description>
<styleUrl>#s_best</styleUrl>
<Point><coordinates>120.25,18.75,0</coordinates></Point></Placemark>
<Placemark><name>#14 鰹魚 (100%)</name>
<description><![CDATA[【v10.2 商業級分析】🔴最佳
═══ 綜合 HSI: 100% ═══
🧬 代謝指數Φ: 8.61 ✅充足 (Φ_crit=3.0)
Φ真實計算: Deutsch 2015 (非截斷)
🌡️ SST: N/A
🌿 NPP: 1022 mgC/m²/d | DO: 4.6 ml/L
🏔️ 深度: 598m
⚓ 水域: 菲律賓EEZ
EEZ驗證: 外國漁船需特別許可
📍 距離: 368 nm (36.8hr)
📊 【正鰹】預測依據：
  1. 🌱初級生產力 ↑ (貢獻 94%)
  2. 🌡️海表溫度 ↑ (貢獻 5%)
  3. 💨溶解氧 ↑ (貢獻 0%)
  4. 🫧代謝可行性 ↑ (貢獻 0%)]]></description>
<styleUrl>#s_best</styleUrl>
<Point><coordinates>121.5,19.0,0</coordinates></Point></Placemark>
<Placemark><name>#15 鰹魚 (100%)</name>
<description><![CDATA[【v10.2 商業級分析】🔴最佳
═══ 綜合 HSI: 100% ═══
🧬 代謝指數Φ: 9.03 ✅充足 (Φ_crit=3.0)
Φ真實計算: Deutsch 2015 (非截斷)
🌡️ SST: N/A
🌿 NPP: 923 mgC/m²/d | DO: 4.6 ml/L
🏔️ 深度: 88m
⚓ 水域: 菲律賓EEZ
EEZ驗證: 外國漁船需特別許可
📍 距離: 368 nm (36.8hr)
📊 【正鰹】預測依據：
  1. 🌱初級生產力 ↑ (貢獻 93%)
  2. 🌡️海表溫度 ↑ (貢獻 6%)
  3. 💨溶解氧 ↑ (貢獻 0%)
  4. 🫧代謝可行性 ↑ (貢獻 0%)]]></description>
<styleUrl>#s_best</styleUrl>
<Point><coordinates>122.0,19.0,0</coordinates></Point></Placemark>
<Placemark><name>#16 鰹魚 (100%)</name>
<description><![CDATA[【v10.2 商業級分析】🔴最佳
═══ 綜合 HSI: 100% ═══
🧬 代謝指數Φ: 8.39 ✅充足 (Φ_crit=3.0)
Φ真實計算: Deutsch 2015 (非截斷)
🌡️ SST: N/A
🌿 NPP: 1076 mgC/m²/d | DO: 4.7 ml/L
🏔️ 深度: 3164m
⚓ 水域: 菲律賓EEZ
EEZ驗證: 外國漁船需特別許可
📍 距離: 362 nm (36.2hr)
📊 【正鰹】預測依據：
  1. 🌱初級生產力 ↑ (貢獻 94%)
  2. 🌡️海表溫度 ↑ (貢獻 5%)
  3. 💨溶解氧 ↑ (貢獻 0%)
  4. 🫧代謝可行性 ↑ (貢獻 0%)]]></description>
<styleUrl>#s_best</styleUrl>
<Point><coordinates>120.25,19.25,0</coordinates></Point></Placemark>
<Placemark><name>#17 鰹魚 (100%)</name>
<description><![CDATA[【v10.2 商業級分析】🔴最佳
═══ 綜合 HSI: 100% ═══
🧬 代謝指數Φ: 8.40 ✅充足 (Φ_crit=3.0)
Φ真實計算: Deutsch 2015 (非截斷)
🌡️ SST: N/A
🌿 NPP: 1070 mgC/m²/d | DO: 4.6 ml/L
🏔️ 深度: 1868m
⚓ 水域: 菲律賓EEZ
EEZ驗證: 外國漁船需特別許可
📍 距離: 339 nm (33.9hr)
📊 【正鰹】預測依據：
  1. 🌱初級生產力 ↑ (貢獻 94%)
  2. 🌡️海表溫度 ↑ (貢獻 5%)
  3. 💨溶解氧 ↑ (貢獻 0%)
  4. 🫧代謝可行性 ↑ (貢獻 0%)]]></description>
<styleUrl>#s_best</styleUrl>
<Point><coordinates>121.25,19.5,0</coordinates></Point></Placemark>
<Placemark><name>#18 鰹魚 (100%)</name>
<description><![CDATA[【v10.2 商業級分析】🔴最佳
═══ 綜合 HSI: 100% ═══
🧬 代謝指數Φ: 8.62 ✅充足 (Φ_crit=3.0)
Φ真實計算: Deutsch 2015 (非截斷)
🌡️ SST: N/A
🌿 NPP: 1016 mgC/m²/d | DO: 4.6 ml/L
🏔️ 深度: 3038m
⚓ 水域: 菲律賓EEZ
EEZ驗證: 外國漁船需特別許可
📍 距離: 312 nm (31.2hr)
📊 【正鰹】預測依據：
  1. 🌱初級生產力 ↑ (貢獻 94%)
  2. 🌡️海表溫度 ↑ (貢獻 5%)
  3. 💨溶解氧 ↑ (貢獻 0%)
  4. 🫧代謝可行性 ↑ (貢獻 0%)]]></description>
<styleUrl>#s_best</styleUrl>
<Point><coordinates>120.75,20.0,0</coordinates></Point></Placemark>
<Placemark><name>#19 鰹魚 (100%)</name>
<description><![CDATA[【v10.2 商業級分析】🔴最佳
═══ 綜合 HSI: 100% ═══
🧬 代謝指數Φ: 8.43 ✅充足 (Φ_crit=3.0)
Φ真實計算: Deutsch 2015 (非截斷)
🌡️ SST: N/A
🌿 NPP: 1828 mgC/m²/d | DO: 4.6 ml/L
🏔️ 深度: 3929m
⚓ 水域: 菲律賓EEZ
EEZ驗證: 外國漁船需特別許可
📍 距離: 289 nm (28.9hr)
📊 【正鰹】預測依據：
  1. 🌱初級生產力 ↑ (貢獻 96%)
  2. 🌡️海表溫度 ↑ (貢獻 3%)
  3. 💨溶解氧 ↑ (貢獻 0%)
  4. 🫧代謝可行性 ↑ (貢獻 0%)]]></description>
<styleUrl>#s_best</styleUrl>
<Point><coordinates>120.25,20.5,0</coordinates></Point></Placemark>
<Placemark><name>#20 鰹魚 (100%)</name>
<description><![CDATA[【v10.2 商業級分析】🔴最佳
═══ 綜合 HSI: 100% ═══
🧬 代謝指數Φ: 8.33 ✅充足 (Φ_crit=3.0)
Φ真實計算: Deutsch 2015 (非截斷)
🌡️ SST: N/A
🌿 NPP: 3006 mgC/m²/d | DO: 4.7 ml/L
🏔️ 深度: 479m
⚓ 水域: 台灣EEZ
EEZ驗證: 台灣籍漁船免許可
📍 距離: 210 nm (21.0hr)
📊 【正鰹】預測依據：
  1. 🌱初級生產力 ↑ (貢獻 98%)
  2. 🌡️海表溫度 ↑ (貢獻 2%)
  3. 💨溶解氧 ↑ (貢獻 0%)
  4. 🫧代謝可行性 ↑ (貢獻 0%)]]></description>
<styleUrl>#s_best</styleUrl>
<Point><coordinates>120.75,21.75,0</coordinates></Point></Placemark>
</Folder>
</Folder>
<Folder><name>分析範圍</name><Placemark><styleUrl>#s_area</styleUrl>
<Polygon><outerBoundaryIs><LinearRing><coordinates>
120.0,5.0,0 175.0,5.0,0 175.0,35.0,0 120.0,35.0,0 120.0,5.0,0
</coordinates></LinearRing></outerBoundaryIs></Polygon></Placemark></Folder>
</Document>
</kml>