{
  "type": "FeatureCollection",
  "features": [
    {
      "type": "Feature",
      "geometry": {
        "type": "Point",
        "coordinates": [
          120.0,
          5.0
        ]
      },
      "properties": {
        "name": "#1 skipjack",
        "score": 100,
        "species": "skipjack",
        "distance_nm": 1211.5,
        "travel_hours": 121.1,
        "eez": "公海",
        "safety": "",
        "marker-color": "#e53935",
        "marker-size": "large",
        "marker-symbol": "harbor"
      }
    },
    {
      "type": "Feature",
      "geometry": {
        "type": "Point",
        "coordinates": [
          120.5,
          5.0
        ]
      },
      "properties": {
        "name": "#2 skipjack",
        "score": 100,
        "species": "skipjack",
        "distance_nm": 1209.7,
        "travel_hours": 121.0,
        "eez": "公海",
        "safety": "",
        "marker-color": "#e53935",
        "marker-size": "large",
        "marker-symbol": "harbor"
      }
    },
    {
      "type": "Feature",
      "geometry": {
        "type": "Point",
        "coordinates": [
          121.0,
          5.0
        ]
      },
      "properties": {
        "name": "#3 skipjack",
        "score": 100,
        "species": "skipjack",
        "distance_nm": 1208.5,
        "travel_hours": 120.8,
        "eez": "公海",
        "safety": "",
        "marker-color": "#e53935",
        "marker-size": "large",
        "marker-symbol": "harbor"
      }
    },
    {
      "type": "Feature",
      "geometry": {
        "type": "Point",
        "coordinates": [
          121.5,
          5.0
        ]
      },
      "properties": {
        "name": "#4 skipjack",
        "score": 100,
        "species": "skipjack",
        "distance_nm": 1207.9,
        "travel_hours": 120.8,
        "eez": "公海",
        "safety": "",
        "marker-color": "#e53935",
        "marker-size": "large",
        "marker-symbol": "harbor"
      }
    },
    {
      "type": "Feature",
      "geometry": {
        "type": "Point",
        "coordinates": [
          122.0,
          5.0
        ]
      },
      "properties": {
        "name": "#5 skipjack",
        "score": 100,
        "species": "skipjack",
        "distance_nm": 1207.9,
        "travel_hours": 120.8,
        "eez": "公海",
        "safety": "",
        "marker-color": "#e53935",
        "marker-size": "large",
        "marker-symbol": "harbor"
      }
    },
    {
      "type": "Feature",
      "geometry": {
        "type": "Point",
        "coordinates": [
          120.0,
          5.0
        ]
      },
      "properties": {
        "name": "#1 yellowfin",
        "score": 100,
        "species": "yellowfin",
        "distance_nm": 1211.5,
        "travel_hours": 121.1,
        "eez": "公海",
        "safety": "",
        "marker-color": "#e53935",
        "marker-size": "large",
        "marker-symbol": "harbor"
      }
    },
    {
      "type": "Feature",
      "geometry": {
        "type": "Point",
        "coordinates": [
          120.5,
          5.0
        ]
      },
      "properties": {
        "name": "#2 yellowfin",
        "score": 100,
        "species": "yellowfin",
        "distance_nm": 1209.7,
        "travel_hours": 121.0,
        "eez": "公海",
        "safety": "",
        "marker-color": "#e53935",
        "marker-size": "large",
        "marker-symbol": "harbor"
      }
    },
    {
      "type": "Feature",
      "geometry": {
        "type": "Point",
        "coordinates": [
          121.0,
          5.0
        ]
      },
      "properties": {
        "name": "#3 yellowfin",
        "score": 100,
        "species": "yellowfin",
        "distance_nm": 1208.5,
        "travel_hours": 120.8,
        "eez": "公海",
        "safety": "",
        "marker-color": "#e53935",
        "marker-size": "large",
        "marker-symbol": "harbor"
      }
    },
    {
      "type": "Feature",
      "geometry": {
        "type": "Point",
        "coordinates": [
          121.5,
          5.0
        ]
      },
      "properties": {
        "name": "#4 yellowfin",
        "score": 100,
        "species": "yellowfin",
        "distance_nm": 1207.9,
        "travel_hours": 120.8,
        "eez": "公海",
        "safety": "",
        "marker-color": "#e53935",
        "marker-size": "large",
        "marker-symbol": "harbor"
      }
    },
    {
      "type": "Feature",
      "geometry": {
        "type": "Point",
        "coordinates": [
          122.0,
          5.0
        ]
      },
      "properties": {
        "name": "#5 yellowfin",
        "score": 100,
        "species": "yellowfin",
        "distance_nm": 1207.9,
        "travel_hours": 120.8,
        "eez": "公海",
        "safety": "",
        "marker-color": "#e53935",
        "marker-size": "large",
        "marker-symbol": "harbor"
      }
    },
    {
      "type": "Feature",
      "geometry": {
        "type": "Point",
        "coordinates": [
          120.0,
          15.0
        ]
      },
      "properties": {
        "name": "#1 bigeye",
        "score": 100,
        "species": "bigeye",
        "distance_nm": 615.1,
        "travel_hours": 61.5,
        "eez": "公海",
        "safety": "",
        "marker-color": "#e53935",
        "marker-size": "large",
        "marker-symbol": "harbor"
      }
    },
    {
      "type": "Feature",
      "geometry": {
        "type": "Point",
        "coordinates": [
          122.0,
          15.0
        ]
      },
      "properties": {
        "name": "#2 bigeye",
        "score": 100,
        "species": "bigeye",
        "distance_nm": 608.0,
        "travel_hours": 60.8,
        "eez": "公海",
        "safety": "",
        "marker-color": "#e53935",
        "marker-size": "large",
        "marker-symbol": "harbor"
      }
    },
    {
      "type": "Feature",
      "geometry": {
        "type": "Point",
        "coordinates": [
          122.25,
          16.25
        ]
      },
      "properties": {
        "name": "#3 bigeye",
        "score": 100,
        "species": "bigeye",
        "distance_nm": 533.5,
        "travel_hours": 53.4,
        "eez": "公海",
        "safety": "",
        "marker-color": "#e53935",
        "marker-size": "large",
        "marker-symbol": "harbor"
      }
    },
    {
      "type": "Feature",
      "geometry": {
        "type": "Point",
        "coordinates": [
          122.75,
          16.5
        ]
      },
      "properties": {
        "name": "#4 bigeye",
        "score": 100,
        "species": "bigeye",
        "distance_nm": 520.7,
        "travel_hours": 52.1,
        "eez": "公海",
        "safety": "",
        "marker-color": "#e53935",
        "marker-size": "large",
        "marker-symbol": "harbor"
      }
    },
    {
      "type": "Feature",
      "geometry": {
        "type": "Point",
        "coordinates": [
          120.5,
          17.0
        ]
      },
      "properties": {
        "name": "#5 bigeye",
        "score": 100,
        "species": "bigeye",
        "distance_nm": 492.4,
        "travel_hours": 49.2,
        "eez": "公海",
        "safety": "",
        "marker-color": "#e53935",
        "marker-size": "large",
        "marker-symbol": "harbor"
      }
    },
    {
      "type": "Feature",
      "geometry": {
        "type": "Point",
        "coordinates": [
          139.25,
          32.0
        ]
      },
      "properties": {
        "name": "#1 albacore",
        "score": 21,
        "species": "albacore",
        "distance_nm": 1036.6,
        "travel_hours": 103.7,
        "eez": "公海",
        "safety": "",
        "marker-color": "#fdd835",
        "marker-size": "medium",
        "marker-symbol": "harbor"
      }
    },
    {
      "type": "Feature",
      "geometry": {
        "type": "Point",
        "coordinates": [
          140.25,
          30.75
        ]
      },
      "properties": {
        "name": "#2 albacore",
        "score": 21,
        "species": "albacore",
        "distance_nm": 1060.5,
        "travel_hours": 106.1,
        "eez": "公海",
        "safety": "",
        "marker-color": "#fdd835",
        "marker-size": "medium",
        "marker-symbol": "harbor"
      }
    },
    {
      "type": "Feature",
      "geometry": {
        "type": "Point",
        "coordinates": [
          140.25,
          31.25
        ]
      },
      "properties": {
        "name": "#3 albacore",
        "score": 21,
        "species": "albacore",
        "distance_nm": 1070.4,
        "travel_hours": 107.0,
        "eez": "公海",
        "safety": "",
        "marker-color": "#fdd835",
        "marker-size": "medium",
        "marker-symbol": "harbor"
      }
    },
    {
      "type": "Feature",
      "geometry": {
        "type": "Point",
        "coordinates": [
          139.75,
          32.25
        ]
      },
      "properties": {
        "name": "#4 albacore",
        "score": 21,
        "species": "albacore",
        "distance_nm": 1067.5,
        "travel_hours": 106.8,
        "eez": "公海",
        "safety": "",
        "marker-color": "#fdd835",
        "marker-size": "medium",
        "marker-symbol": "harbor"
      }
    },
    {
      "type": "Feature",
      "geometry": {
        "type": "Point",
        "coordinates": [
          140.25,
          31.75
        ]
      },
      "properties": {
        "name": "#5 albacore",
        "score": 21,
        "species": "albacore",
        "distance_nm": 1081.1,
        "travel_hours": 108.1,
        "eez": "公海",
        "safety": "",
        "marker-color": "#fdd835",
        "marker-size": "medium",
        "marker-symbol": "harbor"
      }
    },
    {
      "type": "Feature",
      "geometry": {
        "type": "LineString",
        "coordinates": [
          [
            121.75,
            25.25
          ]
        ]
      },
      "properties": {
        "name": "建議航線",
        "type": "fuel_optimal",
        "distance_nm": 7.2,
        "time_hours": Infinity,
        "fuel_savings_pct": 0,
        "stroke": "#4fc3f7",
        "stroke-width": 3,
        "stroke-opacity": 0.8
      }
    }
  ],
  "properties": {
    "generator": "OceanMaster v9.0",
    "timestamp": "2026-02-14T21:22:36.187756+00:00",
    "n_hotspots": 20
  }
}