<?xml version="1.0" encoding="UTF-8"?>
<kml xmlns="http://www.opengis.net/kml/2.2">
<Document>
<name>🎣 OceanMaster v10.2 漁場預測</name>
<description>生成: 2026-02-13 21:44 UTC
⚠️ 本預測僅供參考，實際作業請依據船長經驗和即時觀測</description>
<Style id="s_best"><IconStyle><scale>1.3</scale><Icon><href>https://maps.google.com/mapfiles/kml/paddle/red-circle.png</href></Icon></IconStyle></Style>
<Style id="s_good"><IconStyle><scale>1.1</scale><Icon><href>https://maps.google.com/mapfiles/kml/paddle/orange-circle.png</href></Icon></IconStyle></Style>
<Style id="s_fair"><IconStyle><scale>0.9</scale><Icon><href>https://maps.google.com/mapfiles/kml/paddle/ylw-circle.png</href></Icon></IconStyle></Style>
<Style id="s_low"><IconStyle><scale>0.7</scale><Icon><href>https://maps.google.com/mapfiles/kml/paddle/wht-circle.png</href></Icon></IconStyle></Style>
<Style id="s_area"><PolyStyle><color>20ffffff</color><outline>1</outline></PolyStyle><LineStyle><color>ff0088ff</color><width>1</width></LineStyle></Style>
<LookAt><longitude>147.5</longitude><latitude>20.0</latitude><range>2500000</range></LookAt>
<Folder><name>🎯 v10.2 漁場熱點</name><open>1</open>
<description>Φ(Deutsch2015真實計算) + SEAPODYM棲息地 + 營養鏈
Φ不截斷 + EEZ地理校正 + HSI幾何平均
生成: 2026-02-13 21:44 UTC</description>
<Folder><name>鰹魚</name>
<Placemark><name>#1 鰹魚 (100%)</name>
<description><![CDATA[【v10.2 商業級分析】🔴最佳
═══ 綜合 HSI: 100% ═══
🧬 代謝指數Φ: 7.98 ✅充足 (Φ_crit=3.0)
Φ真實計算: Deutsch 2015 (非截斷)
🌡️ SST: N/A
🌿 NPP: 5000 mgC/m²/d | DO: 4.4 ml/L
🏔️ 深度: -4m
⚓ 水域: 菲律賓EEZ
EEZ驗證: 外國漁船需特別許可
📍 距離: 1196 nm (119.6hr)
📊 【正鰹】預測依據：
  1. 🌱初級生產力 ↑ (貢獻 98%)
  2. 🌡️海表溫度 ↑ (貢獻 1%)
  3. 💨溶解氧 ↑ (貢獻 0%)
  4. 🍤餌料可及性 ↑ (貢獻 0%)]]></description>
<styleUrl>#s_best</styleUrl>
<Point><coordinates>120.25,5.25,0</coordinates></Point></Placemark>
<Placemark><name>#2 鰹魚 (100%)</name>
<description><![CDATA[【v10.2 商業級分析】🔴最佳
═══ 綜合 HSI: 100% ═══
🧬 代謝指數Φ: 7.84 ✅充足 (Φ_crit=3.0)
Φ真實計算: Deutsch 2015 (非截斷)
🌡️ SST: N/A
🌿 NPP: 5000 mgC/m²/d | DO: 4.4 ml/L
🏔️ 深度: 4098m
⚓ 水域: 菲律賓EEZ
EEZ驗證: 外國漁船需特別許可
📍 距離: 1191 nm (119.1hr)
📊 【正鰹】預測依據：
  1. 🌱初級生產力 ↑ (貢獻 99%)
  2. 🌡️海表溫度 ↑ (貢獻 1%)
  3. 💨溶解氧 ↑ (貢獻 0%)
  4. 🍤餌料可及性 ↑ (貢獻 0%)]]></description>
<styleUrl>#s_best</styleUrl>
<Point><coordinates>125.0,5.5,0</coordinates></Point></Placemark>
<Placemark><name>#3 鰹魚 (100%)</name>
<description><![CDATA[【v10.2 商業級分析】🔴最佳
═══ 綜合 HSI: 100% ═══
🧬 代謝指數Φ: 7.47 ✅充足 (Φ_crit=3.0)
Φ真實計算: Deutsch 2015 (非截斷)
🌡️ SST: N/A
🌿 NPP: 5000 mgC/m²/d | DO: 4.4 ml/L
🏔️ 深度: -21m
⚓ 水域: 菲律賓EEZ
EEZ驗證: 外國漁船需特別許可
📍 距離: 1195 nm (119.5hr)
📊 【正鰹】預測依據：
  1. 🌱初級生產力 ↑ (貢獻 99%)
  2. 🌡️海表溫度 ↑ (貢獻 1%)
  3. 💨溶解氧 ↑ (貢獻 0%)
  4. 🍤餌料可及性 ↑ (貢獻 0%)]]></description>
<styleUrl>#s_best</styleUrl>
<Point><coordinates>125.5,5.5,0</coordinates></Point></Placemark>
<Placemark><name>#4 鰹魚 (100%)</name>
<description><![CDATA[【v10.2 商業級分析】🔴最佳
═══ 綜合 HSI: 100% ═══
🧬 代謝指數Φ: 8.30 ✅充足 (Φ_crit=3.0)
Φ真實計算: Deutsch 2015 (非截斷)
🌡️ SST: N/A
🌿 NPP: 5000 mgC/m²/d | DO: 4.4 ml/L
🏔️ 深度: 2091m
⚓ 水域: 菲律賓EEZ
EEZ驗證: 外國漁船需特別許可
📍 距離: 1163 nm (116.3hr)
📊 【正鰹】預測依據：
  1. 🌱初級生產力 ↑ (貢獻 98%)
  2. 🌡️海表溫度 ↑ (貢獻 1%)
  3. 💨溶解氧 ↑ (貢獻 0%)
  4. 🍤餌料可及性 ↑ (貢獻 0%)]]></description>
<styleUrl>#s_best</styleUrl>
<Point><coordinates>121.25,5.75,0</coordinates></Point></Placemark>
<Placemark><name>#5 鰹魚 (100%)</name>
<description><![CDATA[【v10.2 商業級分析】🔴最佳
═══ 綜合 HSI: 100% ═══
🧬 代謝指數Φ: 6.85 ✅充足 (Φ_crit=3.0)
Φ真實計算: Deutsch 2015 (非截斷)
🌡️ SST: N/A
🌿 NPP: 5000 mgC/m²/d | DO: 4.4 ml/L
🏔️ 深度: 181m
⚓ 水域: 菲律賓EEZ
EEZ驗證: 外國漁船需特別許可
📍 距離: 1164 nm (116.4hr)
📊 【正鰹】預測依據：
  1. 🌱初級生產力 ↑ (貢獻 99%)
  2. 🌡️海表溫度 ↑ (貢獻 1%)
  3. 💨溶解氧 ↑ (貢獻 0%)
  4. 🍤餌料可及性 ↑ (貢獻 0%)]]></description>
<styleUrl>#s_best</styleUrl>
<Point><coordinates>125.25,6.0,0</coordinates></Point></Placemark>
<Placemark><name>#6 鰹魚 (100%)</name>
<description><![CDATA[【v10.2 商業級分析】🔴最佳
═══ 綜合 HSI: 100% ═══
🧬 代謝指數Φ: 7.80 ✅充足 (Φ_crit=3.0)
Φ真實計算: Deutsch 2015 (非截斷)
🌡️ SST: N/A
🌿 NPP: 5000 mgC/m²/d | DO: 4.4 ml/L
🏔️ 深度: 2342m
⚓ 水域: 菲律賓EEZ
EEZ驗證: 外國漁船需特別許可
📍 距離: 1168 nm (116.8hr)
📊 【正鰹】預測依據：
  1. 🌱初級生產力 ↑ (貢獻 99%)
  2. 🌡️海表溫度 ↑ (貢獻 1%)
  3. 💨溶解氧 ↑ (貢獻 0%)
  4. 🍤餌料可及性 ↑ (貢獻 0%)]]></description>
<styleUrl>#s_best</styleUrl>
<Point><coordinates>125.75,6.0,0</coordinates></Point></Placemark>
<Placemark><name>#7 鰹魚 (100%)</name>
<description><![CDATA[【v10.2 商業級分析】🔴最佳
═══ 綜合 HSI: 100% ═══
🧬 代謝指數Φ: 7.49 ✅充足 (Φ_crit=3.0)
Φ真實計算: Deutsch 2015 (非截斷)
🌡️ SST: N/A
🌿 NPP: 5000 mgC/m²/d | DO: 4.4 ml/L
🏔️ 深度: 578m
⚓ 水域: 菲律賓EEZ
EEZ驗證: 外國漁船需特別許可
📍 距離: 1159 nm (115.9hr)
📊 【正鰹】預測依據：
  1. 🌱初級生產力 ↑ (貢獻 99%)
  2. 🌡️海表溫度 ↑ (貢獻 1%)
  3. 💨溶解氧 ↑ (貢獻 0%)
  4. 🍤餌料可及性 ↑ (貢獻 0%)]]></description>
<styleUrl>#s_best</styleUrl>
<Point><coordinates>126.25,6.25,0</coordinates></Point></Placemark>
<Placemark><name>#8 鰹魚 (100%)</name>
<description><![CDATA[【v10.2 商業級分析】🔴最佳
═══ 綜合 HSI: 100% ═══
🧬 代謝指數Φ: 7.81 ✅充足 (Φ_crit=3.0)
Φ真實計算: Deutsch 2015 (非截斷)
🌡️ SST: N/A
🌿 NPP: 5000 mgC/m²/d | DO: 4.5 ml/L
🏔️ 深度: 1825m
⚓ 水域: 菲律賓EEZ
EEZ驗證: 外國漁船需特別許可
📍 距離: 1139 nm (113.9hr)
📊 【正鰹】預測依據：
  1. 🌱初級生產力 ↑ (貢獻 99%)
  2. 🌡️海表溫度 ↑ (貢獻 1%)
  3. 💨溶解氧 ↑ (貢獻 0%)
  4. 🍤餌料可及性 ↑ (貢獻 0%)]]></description>
<styleUrl>#s_best</styleUrl>
<Point><coordinates>125.75,6.5,0</coordinates></Point></Placemark>
<Placemark><name>#9 鰹魚 (100%)</name>
<description><![CDATA[【v10.2 商業級分析】🔴最佳
═══ 綜合 HSI: 100% ═══
🧬 代謝指數Φ: 8.10 ✅充足 (Φ_crit=3.0)
Φ真實計算: Deutsch 2015 (非截斷)
🌡️ SST: N/A
🌿 NPP: 5000 mgC/m²/d | DO: 4.5 ml/L
🏔️ 深度: 2977m
⚓ 水域: 帛琉EEZ
EEZ驗證: 嚴格保護區，部分禁漁
📍 距離: 1268 nm (126.8hr)
📊 【正鰹】預測依據：
  1. 🌱初級生產力 ↑ (貢獻 99%)
  2. 🌡️海表溫度 ↑ (貢獻 1%)
  3. 💨溶解氧 ↑ (貢獻 0%)
  4. 🍤餌料可及性 ↑ (貢獻 0%)]]></description>
<styleUrl>#s_best</styleUrl>
<Point><coordinates>132.75,6.5,0</coordinates></Point></Placemark>
<Placemark><name>#10 鰹魚 (100%)</name>
<description><![CDATA[【v10.2 商業級分析】🔴最佳
═══ 綜合 HSI: 100% ═══
🧬 代謝指數Φ: 8.20 ✅充足 (Φ_crit=3.0)
Φ真實計算: Deutsch 2015 (非截斷)
🌡️ SST: N/A
🌿 NPP: 5000 mgC/m²/d | DO: 4.5 ml/L
🏔️ 深度: 2m
⚓ 水域: 菲律賓EEZ
EEZ驗證: 外國漁船需特別許可
📍 距離: 1103 nm (110.3hr)
📊 【正鰹】預測依據：
  1. 🌱初級生產力 ↑ (貢獻 98%)
  2. 🌡️海表溫度 ↑ (貢獻 1%)
  3. 💨溶解氧 ↑ (貢獻 0%)
  4. 🍤餌料可及性 ↑ (貢獻 0%)]]></description>
<styleUrl>#s_best</styleUrl>
<Point><coordinates>122.0,6.75,0</coordinates></Point></Placemark>
<Placemark><name>#11 鰹魚 (100%)</name>
<description><![CDATA[【v10.2 商業級分析】🔴最佳
═══ 綜合 HSI: 100% ═══
🧬 代謝指數Φ: 6.92 ✅充足 (Φ_crit=3.0)
Φ真實計算: Deutsch 2015 (非截斷)
🌡️ SST: N/A
🌿 NPP: 5000 mgC/m²/d | DO: 4.5 ml/L
🏔️ 深度: -213m
⚓ 水域: 菲律賓EEZ
EEZ驗證: 外國漁船需特別許可
📍 距離: 1130 nm (113.0hr)
📊 【正鰹】預測依據：
  1. 🌱初級生產力 ↑ (貢獻 99%)
  2. 🌡️海表溫度 ↑ (貢獻 1%)
  3. 💨溶解氧 ↑ (貢獻 0%)
  4. 🍤餌料可及性 ↑ (貢獻 0%)]]></description>
<styleUrl>#s_best</styleUrl>
<Point><coordinates>126.25,6.75,0</coordinates></Point></Placemark>
<Placemark><name>#12 鰹魚 (100%)</name>
<description><![CDATA[【v10.2 商業級分析】🔴最佳
═══ 綜合 HSI: 100% ═══
🧬 代謝指數Φ: 5.83 ✅充足 (Φ_crit=3.0)
Φ真實計算: Deutsch 2015 (非截斷)
🌡️ SST: N/A
🌿 NPP: 5000 mgC/m²/d | DO: 4.5 ml/L
🏔️ 深度: -1817m
⚓ 水域: 菲律賓EEZ
EEZ驗證: 外國漁船需特別許可
📍 距離: 1104 nm (110.4hr)
📊 【正鰹】預測依據：
  1. 🌱初級生產力 ↑ (貢獻 99%)
  2. 🌡️海表溫度 ↑ (貢獻 1%)
  3. 💨溶解氧 ↑ (貢獻 0%)
  4. 🍤餌料可及性 ↑ (貢獻 0%)]]></description>
<styleUrl>#s_best</styleUrl>
<Point><coordinates>125.25,7.0,0</coordinates></Point></Placemark>
<Placemark><name>#13 鰹魚 (100%)</name>
<description><![CDATA[【v10.2 商業級分析】🔴最佳
═══ 綜合 HSI: 100% ═══
🧬 代謝指數Φ: 8.01 ✅充足 (Φ_crit=3.0)
Φ真實計算: Deutsch 2015 (非截斷)
🌡️ SST: N/A
🌿 NPP: 4706 mgC/m²/d | DO: 4.5 ml/L
🏔️ 深度: -285m
⚓ 水域: 菲律賓EEZ
EEZ驗證: 外國漁船需特別許可
📍 距離: 1109 nm (110.9hr)
📊 【正鰹】預測依據：
  1. 🌱初級生產力 ↑ (貢獻 98%)
  2. 🌡️海表溫度 ↑ (貢獻 1%)
  3. 💨溶解氧 ↑ (貢獻 0%)
  4. 🍤餌料可及性 ↑ (貢獻 0%)]]></description>
<styleUrl>#s_best</styleUrl>
<Point><coordinates>125.75,7.0,0</coordinates></Point></Placemark>
<Placemark><name>#14 鰹魚 (100%)</name>
<description><![CDATA[【v10.2 商業級分析】🔴最佳
═══ 綜合 HSI: 100% ═══
🧬 代謝指數Φ: 8.21 ✅充足 (Φ_crit=3.0)
Φ真實計算: Deutsch 2015 (非截斷)
🌡️ SST: N/A
🌿 NPP: 2524 mgC/m²/d | DO: 4.5 ml/L
🏔️ 深度: 3881m
⚓ 水域: 菲律賓EEZ
EEZ驗證: 外國漁船需特別許可
📍 距離: 1121 nm (112.1hr)
📊 【正鰹】預測依據：
  1. 🌱初級生產力 ↑ (貢獻 97%)
  2. 🌡️海表溫度 ↑ (貢獻 3%)
  3. 💨溶解氧 ↑ (貢獻 0%)
  4. 🫧代謝可行性 ↑ (貢獻 0%)]]></description>
<styleUrl>#s_best</styleUrl>
<Point><coordinates>126.75,7.0,0</coordinates></Point></Placemark>
<Placemark><name>#15 鰹魚 (100%)</name>
<description><![CDATA[【v10.2 商業級分析】🔴最佳
═══ 綜合 HSI: 100% ═══
🧬 代謝指數Φ: 8.23 ✅充足 (Φ_crit=3.0)
Φ真實計算: Deutsch 2015 (非截斷)
🌡️ SST: N/A
🌿 NPP: 3213 mgC/m²/d | DO: 4.5 ml/L
🏔️ 深度: 4529m
⚓ 水域: 帛琉EEZ
EEZ驗證: 嚴格保護區，部分禁漁
📍 距離: 1290 nm (129.0hr)
📊 【正鰹】預測依據：
  1. 🌱初級生產力 ↑ (貢獻 98%)
  2. 🌡️海表溫度 ↑ (貢獻 2%)
  3. 💨溶解氧 ↑ (貢獻 0%)
  4. 🫧代謝可行性 ↑ (貢獻 0%)]]></description>
<styleUrl>#s_best</styleUrl>
<Point><coordinates>134.5,7.0,0</coordinates></Point></Placemark>
<Placemark><name>#16 鰹魚 (100%)</name>
<description><![CDATA[【v10.2 商業級分析】🔴最佳
═══ 綜合 HSI: 100% ═══
🧬 代謝指數Φ: 8.12 ✅充足 (Φ_crit=3.0)
Φ真實計算: Deutsch 2015 (非截斷)
🌡️ SST: N/A
🌿 NPP: 5000 mgC/m²/d | DO: 4.5 ml/L
🏔️ 深度: 884m
⚓ 水域: 菲律賓EEZ
EEZ驗證: 外國漁船需特別許可
📍 距離: 1073 nm (107.3hr)
📊 【正鰹】預測依據：
  1. 🌱初級生產力 ↑ (貢獻 98%)
  2. 🌡️海表溫度 ↑ (貢獻 1%)
  3. 💨溶解氧 ↑ (貢獻 0%)
  4. 🍤餌料可及性 ↑ (貢獻 0%)]]></description>
<styleUrl>#s_best</styleUrl>
<Point><coordinates>121.75,7.25,0</coordinates></Point></Placemark>
<Placemark><name>#17 鰹魚 (100%)</name>
<description><![CDATA[【v10.2 商業級分析】🔴最佳
═══ 綜合 HSI: 100% ═══
🧬 代謝指數Φ: 7.06 ✅充足 (Φ_crit=3.0)
Φ真實計算: Deutsch 2015 (非截斷)
🌡️ SST: N/A
🌿 NPP: 5000 mgC/m²/d | DO: 4.5 ml/L
🏔️ 深度: -77m
⚓ 水域: 菲律賓EEZ
EEZ驗證: 外國漁船需特別許可
📍 距離: 1073 nm (107.3hr)
📊 【正鰹】預測依據：
  1. 🌱初級生產力 ↑ (貢獻 99%)
  2. 🌡️海表溫度 ↑ (貢獻 1%)
  3. 💨溶解氧 ↑ (貢獻 0%)
  4. 🍤餌料可及性 ↑ (貢獻 0%)]]></description>
<styleUrl>#s_best</styleUrl>
<Point><coordinates>122.25,7.25,0</coordinates></Point></Placemark>
<Placemark><name>#18 鰹魚 (100%)</name>
<description><![CDATA[【v10.2 商業級分析】🔴最佳
═══ 綜合 HSI: 100% ═══
🧬 代謝指數Φ: 5.99 ✅充足 (Φ_crit=3.0)
Φ真實計算: Deutsch 2015 (非截斷)
🌡️ SST: N/A
🌿 NPP: 5000 mgC/m²/d | DO: 4.5 ml/L
🏔️ 深度: -1600m
⚓ 水域: 菲律賓EEZ
EEZ驗證: 外國漁船需特別許可
📍 距離: 1100 nm (110.0hr)
📊 【正鰹】預測依據：
  1. 🌱初級生產力 ↑ (貢獻 99%)
  2. 🌡️海表溫度 ↑ (貢獻 1%)
  3. 💨溶解氧 ↑ (貢獻 0%)
  4. 🍤餌料可及性 ↑ (貢獻 0%)]]></description>
<styleUrl>#s_best</styleUrl>
<Point><coordinates>126.25,7.25,0</coordinates></Point></Placemark>
<Placemark><name>#19 鰹魚 (100%)</name>
<description><![CDATA[【v10.2 商業級分析】🔴最佳
═══ 綜合 HSI: 100% ═══
🧬 代謝指數Φ: 6.00 ✅充足 (Φ_crit=3.0)
Φ真實計算: Deutsch 2015 (非截斷)
🌡️ SST: N/A
🌿 NPP: 5000 mgC/m²/d | DO: 4.6 ml/L
🏔️ 深度: -316m
⚓ 水域: 菲律賓EEZ
EEZ驗證: 外國漁船需特別許可
📍 距離: 1077 nm (107.7hr)
📊 【正鰹】預測依據：
  1. 🌱初級生產力 ↑ (貢獻 99%)
  2. 🌡️海表溫度 ↑ (貢獻 1%)
  3. 💨溶解氧 ↑ (貢獻 0%)
  4. 🍤餌料可及性 ↑ (貢獻 0%)]]></description>
<styleUrl>#s_best</styleUrl>
<Point><coordinates>125.5,7.5,0</coordinates></Point></Placemark>
<Placemark><name>#20 鰹魚 (100%)</name>
<description><![CDATA[【v10.2 商業級分析】🔴最佳
═══ 綜合 HSI: 100% ═══
🧬 代謝指數Φ: 8.37 ✅充足 (Φ_crit=3.0)
Φ真實計算: Deutsch 2015 (非截斷)
🌡️ SST: N/A
🌿 NPP: 2751 mgC/m²/d | DO: 4.6 ml/L
🏔️ 深度: 1851m
⚓ 水域: 菲律賓EEZ
EEZ驗證: 外國漁船需特別許可
📍 距離: 1092 nm (109.2hr)
📊 【正鰹】預測依據：
  1. 🌱初級生產力 ↑ (貢獻 97%)
  2. 🌡️海表溫度 ↑ (貢獻 2%)
  3. 💨溶解氧 ↑ (貢獻 0%)
  4. 🫧代謝可行性 ↑ (貢獻 0%)]]></description>
<styleUrl>#s_best</styleUrl>
<Point><coordinates>126.75,7.5,0</coordinates></Point></Placemark>
</Folder>
</Folder>
<Folder><name>分析範圍</name><Placemark><styleUrl>#s_area</styleUrl>
<Polygon><outerBoundaryIs><LinearRing><coordinates>
120.0,5.0,0 175.0,5.0,0 175.0,35.0,0 120.0,35.0,0 120.0,5.0,0
</coordinates></LinearRing></outerBoundaryIs></Polygon></Placemark></Folder>
</Document>
</kml>