<?xml version="1.0" encoding="UTF-8"?>
<kml xmlns="http://www.opengis.net/kml/2.2">
<Document>
<name>🎣 OceanMaster v10.2 漁場預測</name>
<description>生成: 2026-02-13 21:41 UTC
⚠️ 本預測僅供參考，實際作業請依據船長經驗和即時觀測</description>
<Style id="s_best"><IconStyle><scale>1.3</scale><Icon><href>https://maps.google.com/mapfiles/kml/paddle/red-circle.png</href></Icon></IconStyle></Style>
<Style id="s_good"><IconStyle><scale>1.1</scale><Icon><href>https://maps.google.com/mapfiles/kml/paddle/orange-circle.png</href></Icon></IconStyle></Style>
<Style id="s_fair"><IconStyle><scale>0.9</scale><Icon><href>https://maps.google.com/mapfiles/kml/paddle/ylw-circle.png</href></Icon></IconStyle></Style>
<Style id="s_low"><IconStyle><scale>0.7</scale><Icon><href>https://maps.google.com/mapfiles/kml/paddle/wht-circle.png</href></Icon></IconStyle></Style>
<Style id="s_area"><PolyStyle><color>20ffffff</color><outline>1</outline></PolyStyle><LineStyle><color>ff0088ff</color><width>1</width></LineStyle></Style>
<LookAt><longitude>147.5</longitude><latitude>20.0</latitude><range>2500000</range></LookAt>
<Folder><name>🎯 v10.2 漁場熱點</name><open>1</open>
<description>Φ(Deutsch2015真實計算) + SEAPODYM棲息地 + 營養鏈
Φ不截斷 + EEZ地理校正 + HSI幾何平均
生成: 2026-02-13 21:41 UTC</description>
<Folder><name>鰹魚</name>
<Placemark><name>#1 鰹魚 (100%)</name>
<description><![CDATA[【v10.2 商業級分析】🔴最佳
═══ 綜合 HSI: 100% ═══
🧬 代謝指數Φ: 9.61 ✅充足 (Φ_crit=3.0)
Φ真實計算: Deutsch 2015 (非截斷)
🌡️ SST: N/A
🌿 NPP: 5000 mgC/m²/d | DO: 4.8 ml/L
🏔️ 深度: -4m
⚓ 水域: 菲律賓EEZ
EEZ驗證: 外國漁船需特別許可
📍 距離: 1196 nm (119.6hr)
📊 【正鰹】預測依據：
  1. 🌱初級生產力 ↑ (貢獻 98%)
  2. 🌡️海表溫度 ↑ (貢獻 1%)
  3. 💨溶解氧 ↑ (貢獻 0%)
  4. 🍤餌料可及性 ↑ (貢獻 0%)]]></description>
<styleUrl>#s_best</styleUrl>
<Point><coordinates>120.25,5.25,0</coordinates></Point></Placemark>
<Placemark><name>#2 鰹魚 (100%)</name>
<description><![CDATA[【v10.2 商業級分析】🔴最佳
═══ 綜合 HSI: 100% ═══
🧬 代謝指數Φ: 9.72 ✅充足 (Φ_crit=3.0)
Φ真實計算: Deutsch 2015 (非截斷)
🌡️ SST: N/A
🌿 NPP: 5000 mgC/m²/d | DO: 4.5 ml/L
🏔️ 深度: 841m
⚓ 水域: 菲律賓EEZ
EEZ驗證: 外國漁船需特別許可
📍 距離: 1194 nm (119.4hr)
📊 【正鰹】預測依據：
  1. 🌱初級生產力 ↑ (貢獻 98%)
  2. 🌡️海表溫度 ↑ (貢獻 1%)
  3. 💨溶解氧 ↑ (貢獻 0%)
  4. 🍤餌料可及性 ↑ (貢獻 0%)]]></description>
<styleUrl>#s_best</styleUrl>
<Point><coordinates>120.75,5.25,0</coordinates></Point></Placemark>
<Placemark><name>#3 鰹魚 (100%)</name>
<description><![CDATA[【v10.2 商業級分析】🔴最佳
═══ 綜合 HSI: 100% ═══
🧬 代謝指數Φ: 9.48 ✅充足 (Φ_crit=3.0)
Φ真實計算: Deutsch 2015 (非截斷)
🌡️ SST: N/A
🌿 NPP: 5000 mgC/m²/d | DO: 4.5 ml/L
🏔️ 深度: 1811m
⚓ 水域: 菲律賓EEZ
EEZ驗證: 外國漁船需特別許可
📍 距離: 1212 nm (121.3hr)
📊 【正鰹】預測依據：
  1. 🌱初級生產力 ↑ (貢獻 99%)
  2. 🌡️海表溫度 ↑ (貢獻 1%)
  3. 💨溶解氧 ↑ (貢獻 0%)
  4. 🫧代謝可行性 ↑ (貢獻 0%)]]></description>
<styleUrl>#s_best</styleUrl>
<Point><coordinates>125.75,5.25,0</coordinates></Point></Placemark>
<Placemark><name>#4 鰹魚 (100%)</name>
<description><![CDATA[【v10.2 商業級分析】🔴最佳
═══ 綜合 HSI: 100% ═══
🧬 代謝指數Φ: 9.51 ✅充足 (Φ_crit=3.0)
Φ真實計算: Deutsch 2015 (非截斷)
🌡️ SST: N/A
🌿 NPP: 5000 mgC/m²/d | DO: 4.5 ml/L
🏔️ 深度: 3614m
⚓ 水域: 菲律賓EEZ
EEZ驗證: 外國漁船需特別許可
📍 距離: 1220 nm (122.1hr)
📊 【正鰹】預測依據：
  1. 🌱初級生產力 ↑ (貢獻 99%)
  2. 🌡️海表溫度 ↑ (貢獻 1%)
  3. 💨溶解氧 ↑ (貢獻 0%)
  4. 🍤餌料可及性 ↑ (貢獻 0%)]]></description>
<styleUrl>#s_best</styleUrl>
<Point><coordinates>126.5,5.25,0</coordinates></Point></Placemark>
<Placemark><name>#5 鰹魚 (100%)</name>
<description><![CDATA[【v10.2 商業級分析】🔴最佳
═══ 綜合 HSI: 100% ═══
🧬 代謝指數Φ: 9.72 ✅充足 (Φ_crit=3.0)
Φ真實計算: Deutsch 2015 (非截斷)
🌡️ SST: N/A
🌿 NPP: 5000 mgC/m²/d | DO: 4.5 ml/L
🏔️ 深度: 2573m
⚓ 水域: 菲律賓EEZ
EEZ驗證: 外國漁船需特別許可
📍 距離: 1226 nm (122.7hr)
📊 【正鰹】預測依據：
  1. 🌱初級生產力 ↑ (貢獻 98%)
  2. 🌡️海表溫度 ↑ (貢獻 1%)
  3. 💨溶解氧 ↑ (貢獻 0%)
  4. 🍤餌料可及性 ↑ (貢獻 0%)]]></description>
<styleUrl>#s_best</styleUrl>
<Point><coordinates>127.0,5.25,0</coordinates></Point></Placemark>
<Placemark><name>#6 鰹魚 (100%)</name>
<description><![CDATA[【v10.2 商業級分析】🔴最佳
═══ 綜合 HSI: 100% ═══
🧬 代謝指數Φ: 9.62 ✅充足 (Φ_crit=3.0)
Φ真實計算: Deutsch 2015 (非截斷)
🌡️ SST: N/A
🌿 NPP: 5000 mgC/m²/d | DO: 4.5 ml/L
🏔️ 深度: 7245m
⚓ 水域: 公海
📍 距離: 1237 nm (123.7hr)
📊 【正鰹】預測依據：
  1. 🌱初級生產力 ↑ (貢獻 98%)
  2. 🌡️海表溫度 ↑ (貢獻 1%)
  3. 💨溶解氧 ↑ (貢獻 0%)
  4. 🍤餌料可及性 ↑ (貢獻 0%)]]></description>
<styleUrl>#s_best</styleUrl>
<Point><coordinates>127.75,5.25,0</coordinates></Point></Placemark>
<Placemark><name>#7 鰹魚 (100%)</name>
<description><![CDATA[【v10.2 商業級分析】🔴最佳
═══ 綜合 HSI: 100% ═══
🧬 代謝指數Φ: 9.70 ✅充足 (Φ_crit=3.0)
Φ真實計算: Deutsch 2015 (非截斷)
🌡️ SST: N/A
🌿 NPP: 5000 mgC/m²/d | DO: 4.5 ml/L
🏔️ 深度: 5926m
⚓ 水域: 公海
📍 距離: 1244 nm (124.4hr)
📊 【正鰹】預測依據：
  1. 🌱初級生產力 ↑ (貢獻 98%)
  2. 🌡️海表溫度 ↑ (貢獻 1%)
  3. 💨溶解氧 ↑ (貢獻 0%)
  4. 🍤餌料可及性 ↑ (貢獻 0%)]]></description>
<styleUrl>#s_best</styleUrl>
<Point><coordinates>128.25,5.25,0</coordinates></Point></Placemark>
<Placemark><name>#8 鰹魚 (100%)</name>
<description><![CDATA[【v10.2 商業級分析】🔴最佳
═══ 綜合 HSI: 100% ═══
🧬 代謝指數Φ: 9.40 ✅充足 (Φ_crit=3.0)
Φ真實計算: Deutsch 2015 (非截斷)
🌡️ SST: N/A
🌿 NPP: 5000 mgC/m²/d | DO: 4.5 ml/L
🏔️ 深度: 4098m
⚓ 水域: 菲律賓EEZ
EEZ驗證: 外國漁船需特別許可
📍 距離: 1191 nm (119.1hr)
📊 【正鰹】預測依據：
  1. 🌱初級生產力 ↑ (貢獻 99%)
  2. 🌡️海表溫度 ↑ (貢獻 1%)
  3. 💨溶解氧 ↑ (貢獻 0%)
  4. 🍤餌料可及性 ↑ (貢獻 0%)]]></description>
<styleUrl>#s_best</styleUrl>
<Point><coordinates>125.0,5.5,0</coordinates></Point></Placemark>
<Placemark><name>#9 鰹魚 (100%)</name>
<description><![CDATA[【v10.2 商業級分析】🔴最佳
═══ 綜合 HSI: 100% ═══
🧬 代謝指數Φ: 9.29 ✅充足 (Φ_crit=3.0)
Φ真實計算: Deutsch 2015 (非截斷)
🌡️ SST: N/A
🌿 NPP: 5000 mgC/m²/d | DO: 4.6 ml/L
🏔️ 深度: 329m
⚓ 水域: 菲律賓EEZ
EEZ驗證: 外國漁船需特別許可
📍 距離: 1165 nm (116.5hr)
📊 【正鰹】預測依據：
  1. 🌱初級生產力 ↑ (貢獻 99%)
  2. 🌡️海表溫度 ↑ (貢獻 1%)
  3. 💨溶解氧 ↑ (貢獻 0%)
  4. 🍤餌料可及性 ↑ (貢獻 0%)]]></description>
<styleUrl>#s_best</styleUrl>
<Point><coordinates>120.5,5.75,0</coordinates></Point></Placemark>
<Placemark><name>#10 鰹魚 (100%)</name>
<description><![CDATA[【v10.2 商業級分析】🔴最佳
═══ 綜合 HSI: 100% ═══
🧬 代謝指數Φ: 9.63 ✅充足 (Φ_crit=3.0)
Φ真實計算: Deutsch 2015 (非截斷)
🌡️ SST: N/A
🌿 NPP: 5000 mgC/m²/d | DO: 4.6 ml/L
🏔️ 深度: 1m
⚓ 水域: 菲律賓EEZ
EEZ驗證: 外國漁船需特別許可
📍 距離: 1164 nm (116.3hr)
📊 【正鰹】預測依據：
  1. 🌱初級生產力 ↑ (貢獻 98%)
  2. 🌡️海表溫度 ↑ (貢獻 1%)
  3. 💨溶解氧 ↑ (貢獻 0%)
  4. 🍤餌料可及性 ↑ (貢獻 0%)]]></description>
<styleUrl>#s_best</styleUrl>
<Point><coordinates>121.0,5.75,0</coordinates></Point></Placemark>
<Placemark><name>#11 鰹魚 (100%)</name>
<description><![CDATA[【v10.2 商業級分析】🔴最佳
═══ 綜合 HSI: 100% ═══
🧬 代謝指數Φ: 7.97 ✅充足 (Φ_crit=3.0)
Φ真實計算: Deutsch 2015 (非截斷)
🌡️ SST: N/A
🌿 NPP: 5000 mgC/m²/d | DO: 4.8 ml/L
🏔️ 深度: -262m
⚓ 水域: 菲律賓EEZ
EEZ驗證: 外國漁船需特別許可
📍 距離: 1181 nm (118.1hr)
📊 【正鰹】預測依據：
  1. 🌱初級生產力 ↑ (貢獻 99%)
  2. 🌡️海表溫度 ↑ (貢獻 1%)
  3. 💨溶解氧 ↑ (貢獻 0%)
  4. 🍤餌料可及性 ↑ (貢獻 0%)]]></description>
<styleUrl>#s_best</styleUrl>
<Point><coordinates>125.5,5.75,0</coordinates></Point></Placemark>
<Placemark><name>#12 鰹魚 (100%)</name>
<description><![CDATA[【v10.2 商業級分析】🔴最佳
═══ 綜合 HSI: 100% ═══
🧬 代謝指數Φ: 9.53 ✅充足 (Φ_crit=3.0)
Φ真實計算: Deutsch 2015 (非截斷)
🌡️ SST: N/A
🌿 NPP: 5000 mgC/m²/d | DO: 4.5 ml/L
🏔️ 深度: 3224m
⚓ 水域: 菲律賓EEZ
EEZ驗證: 外國漁船需特別許可
📍 距離: 1186 nm (118.6hr)
📊 【正鰹】預測依據：
  1. 🌱初級生產力 ↑ (貢獻 99%)
  2. 🌡️海表溫度 ↑ (貢獻 1%)
  3. 💨溶解氧 ↑ (貢獻 0%)
  4. 🫧代謝可行性 ↑ (貢獻 0%)]]></description>
<styleUrl>#s_best</styleUrl>
<Point><coordinates>126.0,5.75,0</coordinates></Point></Placemark>
<Placemark><name>#13 鰹魚 (100%)</name>
<description><![CDATA[【v10.2 商業級分析】🔴最佳
═══ 綜合 HSI: 100% ═══
🧬 代謝指數Φ: 9.77 ✅充足 (Φ_crit=3.0)
Φ真實計算: Deutsch 2015 (非截斷)
🌡️ SST: N/A
🌿 NPP: 5000 mgC/m²/d | DO: 4.5 ml/L
🏔️ 深度: 2185m
⚓ 水域: 菲律賓EEZ
EEZ驗證: 外國漁船需特別許可
📍 距離: 1191 nm (119.1hr)
📊 【正鰹】預測依據：
  1. 🌱初級生產力 ↑ (貢獻 98%)
  2. 🌡️海表溫度 ↑ (貢獻 1%)
  3. 💨溶解氧 ↑ (貢獻 0%)
  4. 🍤餌料可及性 ↑ (貢獻 0%)]]></description>
<styleUrl>#s_best</styleUrl>
<Point><coordinates>126.5,5.75,0</coordinates></Point></Placemark>
<Placemark><name>#14 鰹魚 (100%)</name>
<description><![CDATA[【v10.2 商業級分析】🔴最佳
═══ 綜合 HSI: 100% ═══
🧬 代謝指數Φ: 9.73 ✅充足 (Φ_crit=3.0)
Φ真實計算: Deutsch 2015 (非截斷)
🌡️ SST: N/A
🌿 NPP: 5000 mgC/m²/d | DO: 4.5 ml/L
🏔️ 深度: 4386m
⚓ 水域: 菲律賓EEZ
EEZ驗證: 外國漁船需特別許可
📍 距離: 1197 nm (119.7hr)
📊 【正鰹】預測依據：
  1. 🌱初級生產力 ↑ (貢獻 98%)
  2. 🌡️海表溫度 ↑ (貢獻 1%)
  3. 💨溶解氧 ↑ (貢獻 0%)
  4. 🍤餌料可及性 ↑ (貢獻 0%)]]></description>
<styleUrl>#s_best</styleUrl>
<Point><coordinates>127.0,5.75,0</coordinates></Point></Placemark>
<Placemark><name>#15 鰹魚 (100%)</name>
<description><![CDATA[【v10.2 商業級分析】🔴最佳
═══ 綜合 HSI: 100% ═══
🧬 代謝指數Φ: 9.58 ✅充足 (Φ_crit=3.0)
Φ真實計算: Deutsch 2015 (非截斷)
🌡️ SST: N/A
🌿 NPP: 5000 mgC/m²/d | DO: 4.5 ml/L
🏔️ 深度: 8218m
⚓ 水域: 菲律賓EEZ
EEZ驗證: 外國漁船需特別許可
📍 距離: 1204 nm (120.4hr)
📊 【正鰹】預測依據：
  1. 🌱初級生產力 ↑ (貢獻 99%)
  2. 🌡️海表溫度 ↑ (貢獻 1%)
  3. 💨溶解氧 ↑ (貢獻 0%)
  4. 🍤餌料可及性 ↑ (貢獻 0%)]]></description>
<styleUrl>#s_best</styleUrl>
<Point><coordinates>127.5,5.75,0</coordinates></Point></Placemark>
<Placemark><name>#16 鰹魚 (100%)</name>
<description><![CDATA[【v10.2 商業級分析】🔴最佳
═══ 綜合 HSI: 100% ═══
🧬 代謝指數Φ: 9.59 ✅充足 (Φ_crit=3.0)
Φ真實計算: Deutsch 2015 (非截斷)
🌡️ SST: N/A
🌿 NPP: 5000 mgC/m²/d | DO: 4.5 ml/L
🏔️ 深度: 5355m
⚓ 水域: 公海
📍 距離: 1232 nm (123.2hr)
📊 【正鰹】預測依據：
  1. 🌱初級生產力 ↑ (貢獻 98%)
  2. 🌡️海表溫度 ↑ (貢獻 1%)
  3. 💨溶解氧 ↑ (貢獻 0%)
  4. 🍤餌料可及性 ↑ (貢獻 0%)]]></description>
<styleUrl>#s_best</styleUrl>
<Point><coordinates>129.25,5.75,0</coordinates></Point></Placemark>
<Placemark><name>#17 鰹魚 (100%)</name>
<description><![CDATA[【v10.2 商業級分析】🔴最佳
═══ 綜合 HSI: 100% ═══
🧬 代謝指數Φ: 9.86 ✅充足 (Φ_crit=3.0)
Φ真實計算: Deutsch 2015 (非截斷)
🌡️ SST: N/A
🌿 NPP: 5000 mgC/m²/d | DO: 4.5 ml/L
🏔️ 深度: 5169m
⚓ 水域: 帛琉EEZ
EEZ驗證: 嚴格保護區，部分禁漁
📍 距離: 1354 nm (135.4hr)
📊 【正鰹】預測依據：
  1. 🌱初級生產力 ↑ (貢獻 98%)
  2. 🌡️海表溫度 ↑ (貢獻 1%)
  3. 💨溶解氧 ↑ (貢獻 0%)
  4. 🍤餌料可及性 ↑ (貢獻 0%)]]></description>
<styleUrl>#s_best</styleUrl>
<Point><coordinates>134.5,5.75,0</coordinates></Point></Placemark>
<Placemark><name>#18 鰹魚 (100%)</name>
<description><![CDATA[【v10.2 商業級分析】🔴最佳
═══ 綜合 HSI: 100% ═══
🧬 代謝指數Φ: 9.58 ✅充足 (Φ_crit=3.0)
Φ真實計算: Deutsch 2015 (非截斷)
🌡️ SST: N/A
🌿 NPP: 5000 mgC/m²/d | DO: 4.5 ml/L
🏔️ 深度: 4498m
⚓ 水域: 密克羅尼西亞EEZ
EEZ驗證: 需FSM入漁許可
📍 距離: 1397 nm (139.7hr)
📊 【正鰹】預測依據：
  1. 🌱初級生產力 ↑ (貢獻 99%)
  2. 🌡️海表溫度 ↑ (貢獻 1%)
  3. 💨溶解氧 ↑ (貢獻 0%)
  4. 🍤餌料可及性 ↑ (貢獻 0%)]]></description>
<styleUrl>#s_best</styleUrl>
<Point><coordinates>136.0,5.75,0</coordinates></Point></Placemark>
<Placemark><name>#19 鰹魚 (100%)</name>
<description><![CDATA[【v10.2 商業級分析】🔴最佳
═══ 綜合 HSI: 100% ═══
🧬 代謝指數Φ: 9.91 ✅充足 (Φ_crit=3.0)
Φ真實計算: Deutsch 2015 (非截斷)
🌡️ SST: N/A
🌿 NPP: 5000 mgC/m²/d | DO: 4.5 ml/L
🏔️ 深度: 95m
⚓ 水域: 菲律賓EEZ
EEZ驗證: 外國漁船需特別許可
📍 距離: 1148 nm (114.8hr)
📊 【正鰹】預測依據：
  1. 🌱初級生產力 ↑ (貢獻 98%)
  2. 🌡️海表溫度 ↑ (貢獻 1%)
  3. 💨溶解氧 ↑ (貢獻 0%)
  4. 🍤餌料可及性 ↑ (貢獻 0%)]]></description>
<styleUrl>#s_best</styleUrl>
<Point><coordinates>121.5,6.0,0</coordinates></Point></Placemark>
<Placemark><name>#20 鰹魚 (100%)</name>
<description><![CDATA[【v10.2 商業級分析】🔴最佳
═══ 綜合 HSI: 100% ═══
🧬 代謝指數Φ: 6.91 ✅充足 (Φ_crit=3.0)
Φ真實計算: Deutsch 2015 (非截斷)
🌡️ SST: N/A
🌿 NPP: 5000 mgC/m²/d | DO: 4.8 ml/L
🏔️ 深度: -395m
⚓ 水域: 菲律賓EEZ
EEZ驗證: 外國漁船需特別許可
📍 距離: 1159 nm (115.9hr)
📊 【正鰹】預測依據：
  1. 🌱初級生產力 ↑ (貢獻 99%)
  2. 🌡️海表溫度 ↑ (貢獻 1%)
  3. 💨溶解氧 ↑ (貢獻 0%)
  4. 🍤餌料可及性 ↑ (貢獻 0%)]]></description>
<styleUrl>#s_best</styleUrl>
<Point><coordinates>124.75,6.0,0</coordinates></Point></Placemark>
</Folder>
</Folder>
<Folder><name>分析範圍</name><Placemark><styleUrl>#s_area</styleUrl>
<Polygon><outerBoundaryIs><LinearRing><coordinates>
120.0,5.0,0 175.0,5.0,0 175.0,35.0,0 120.0,35.0,0 120.0,5.0,0
</coordinates></LinearRing></outerBoundaryIs></Polygon></Placemark></Folder>
</Document>
</kml>