<?xml version="1.0" encoding="UTF-8"?>
<kml xmlns="http://www.opengis.net/kml/2.2">
<Document>
<name>🎣 OceanMaster v10.2 漁場預測</name>
<description>生成: 2026-02-15 02:32 UTC
⚠️ 本預測僅供參考，實際作業請依據船長經驗和即時觀測</description>
<Style id="s_best"><IconStyle><scale>1.3</scale><Icon><href>https://maps.google.com/mapfiles/kml/paddle/red-circle.png</href></Icon></IconStyle></Style>
<Style id="s_good"><IconStyle><scale>1.1</scale><Icon><href>https://maps.google.com/mapfiles/kml/paddle/orange-circle.png</href></Icon></IconStyle></Style>
<Style id="s_fair"><IconStyle><scale>0.9</scale><Icon><href>https://maps.google.com/mapfiles/kml/paddle/ylw-circle.png</href></Icon></IconStyle></Style>
<Style id="s_low"><IconStyle><scale>0.7</scale><Icon><href>https://maps.google.com/mapfiles/kml/paddle/wht-circle.png</href></Icon></IconStyle></Style>
<Style id="s_area"><PolyStyle><color>20ffffff</color><outline>1</outline></PolyStyle><LineStyle><color>ff0088ff</color><width>1</width></LineStyle></Style>
<LookAt><longitude>147.5</longitude><latitude>20.0</latitude><range>2500000</range></LookAt>
<Folder><name>🎯 v10.2 漁場熱點</name><open>1</open>
<description>Φ(Deutsch2015真實計算) + SEAPODYM棲息地 + 營養鏈
Φ不截斷 + EEZ地理校正 + HSI幾何平均
生成: 2026-02-15 02:32 UTC</description>
<Folder><name>鰹魚</name>
<Placemark><name>#1 鰹魚 (100%)</name>
<description><![CDATA[【v10.2 商業級分析】🔴最佳
═══ 綜合 HSI: 100% ═══
🧬 代謝指數Φ: 8.40 ✅充足 (Φ_crit=3.0)
Φ真實計算: Deutsch 2015 (非截斷)
🌡️ SST: 27.1°C
🌿 NPP: 4420 mgC/m²/d | DO: 4.5 ml/L
🏔️ 深度: 5023m
⚓ 水域: 公海
📍 距離: 1256 nm (125.6hr)
📊 【正鰹】預測依據：
  1. ⛰️水深 ↓ (貢獻 52%)
  2. bathy_slope ↓ (貢獻 25%)
  3. dist_shelf_break ↑ (貢獻 5%)
  4. 🌀渦旋強度 ↓ (貢獻 4%)]]></description>
<styleUrl>#s_best</styleUrl>
<Point><coordinates>129.0,5.25,0</coordinates></Point></Placemark>
<Placemark><name>#2 鰹魚 (100%)</name>
<description><![CDATA[【v10.2 商業級分析】🔴最佳
═══ 綜合 HSI: 100% ═══
🧬 代謝指數Φ: 8.40 ✅充足 (Φ_crit=3.0)
Φ真實計算: Deutsch 2015 (非截斷)
🌡️ SST: 27.1°C
🌿 NPP: 5000 mgC/m²/d | DO: 4.5 ml/L
🏔️ 深度: 5053m
⚓ 水域: 公海
📍 距離: 1265 nm (126.5hr)
📊 【正鰹】預測依據：
  1. ⛰️水深 ↓ (貢獻 52%)
  2. bathy_slope ↓ (貢獻 25%)
  3. dist_shelf_break ↑ (貢獻 5%)
  4. 🌀渦旋強度 ↓ (貢獻 4%)]]></description>
<styleUrl>#s_best</styleUrl>
<Point><coordinates>129.5,5.25,0</coordinates></Point></Placemark>
<Placemark><name>#3 鰹魚 (100%)</name>
<description><![CDATA[【v10.2 商業級分析】🔴最佳
═══ 綜合 HSI: 100% ═══
🧬 代謝指數Φ: 8.40 ✅充足 (Φ_crit=3.0)
Φ真實計算: Deutsch 2015 (非截斷)
🌡️ SST: 27.1°C
🌿 NPP: 3255 mgC/m²/d | DO: 4.5 ml/L
🏔️ 深度: 5006m
⚓ 水域: 帛琉EEZ
EEZ驗證: 嚴格保護區，部分禁漁
📍 距離: 1274 nm (127.4hr)
📊 【正鰹】預測依據：
  1. ⛰️水深 ↓ (貢獻 52%)
  2. bathy_slope ↓ (貢獻 25%)
  3. dist_shelf_break ↑ (貢獻 5%)
  4. 🌀渦旋強度 ↓ (貢獻 4%)]]></description>
<styleUrl>#s_best</styleUrl>
<Point><coordinates>130.0,5.25,0</coordinates></Point></Placemark>
<Placemark><name>#4 鰹魚 (100%)</name>
<description><![CDATA[【v10.2 商業級分析】🔴最佳
═══ 綜合 HSI: 100% ═══
🧬 代謝指數Φ: 8.49 ✅充足 (Φ_crit=3.0)
Φ真實計算: Deutsch 2015 (非截斷)
🌡️ SST: 27.1°C
🌿 NPP: 3171 mgC/m²/d | DO: 4.5 ml/L
🏔️ 深度: 5389m
⚓ 水域: 帛琉EEZ
EEZ驗證: 嚴格保護區，部分禁漁
📍 距離: 1284 nm (128.4hr)
📊 【正鰹】預測依據：
  1. ⛰️水深 ↓ (貢獻 52%)
  2. bathy_slope ↓ (貢獻 25%)
  3. dist_shelf_break ↑ (貢獻 5%)
  4. 🌀渦旋強度 ↓ (貢獻 4%)]]></description>
<styleUrl>#s_best</styleUrl>
<Point><coordinates>130.5,5.25,0</coordinates></Point></Placemark>
<Placemark><name>#5 鰹魚 (100%)</name>
<description><![CDATA[【v10.2 商業級分析】🔴最佳
═══ 綜合 HSI: 100% ═══
🧬 代謝指數Φ: 8.39 ✅充足 (Φ_crit=3.0)
Φ真實計算: Deutsch 2015 (非截斷)
🌡️ SST: 27.1°C
🌿 NPP: 5000 mgC/m²/d | DO: 4.5 ml/L
🏔️ 深度: 4496m
⚓ 水域: 帛琉EEZ
EEZ驗證: 嚴格保護區，部分禁漁
📍 距離: 1294 nm (129.5hr)
📊 【正鰹】預測依據：
  1. ⛰️水深 ↓ (貢獻 52%)
  2. bathy_slope ↓ (貢獻 25%)
  3. dist_shelf_break ↑ (貢獻 5%)
  4. 🌀渦旋強度 ↓ (貢獻 4%)]]></description>
<styleUrl>#s_best</styleUrl>
<Point><coordinates>131.0,5.25,0</coordinates></Point></Placemark>
</Folder>
<Folder><name>黃鰭鮪</name>
<Placemark><name>#1 黃鰭鮪 (100%)</name>
<description><![CDATA[【v10.2 商業級分析】🔴最佳
═══ 綜合 HSI: 100% ═══
🧬 代謝指數Φ: 9.47 ✅充足 (Φ_crit=3.0)
Φ真實計算: Deutsch 2015 (非截斷)
🌡️ SST: 27.1°C
🌿 NPP: 4420 mgC/m²/d | DO: 4.5 ml/L
🏔️ 深度: 5023m
⚓ 水域: 公海
📍 距離: 1256 nm (125.6hr)
📊 【黃鰭鮪】預測依據：
  1. ⛰️水深 ↓ (貢獻 52%)
  2. bathy_slope ↓ (貢獻 25%)
  3. dist_shelf_break ↑ (貢獻 5%)
  4. 🌀渦旋強度 ↓ (貢獻 4%)]]></description>
<styleUrl>#s_best</styleUrl>
<Point><coordinates>129.0,5.25,0</coordinates></Point></Placemark>
<Placemark><name>#2 黃鰭鮪 (100%)</name>
<description><![CDATA[【v10.2 商業級分析】🔴最佳
═══ 綜合 HSI: 100% ═══
🧬 代謝指數Φ: 9.47 ✅充足 (Φ_crit=3.0)
Φ真實計算: Deutsch 2015 (非截斷)
🌡️ SST: 27.1°C
🌿 NPP: 5000 mgC/m²/d | DO: 4.5 ml/L
🏔️ 深度: 5053m
⚓ 水域: 公海
📍 距離: 1265 nm (126.5hr)
📊 【黃鰭鮪】預測依據：
  1. ⛰️水深 ↓ (貢獻 52%)
  2. bathy_slope ↓ (貢獻 25%)
  3. dist_shelf_break ↑ (貢獻 5%)
  4. 🌀渦旋強度 ↓ (貢獻 4%)]]></description>
<styleUrl>#s_best</styleUrl>
<Point><coordinates>129.5,5.25,0</coordinates></Point></Placemark>
<Placemark><name>#3 黃鰭鮪 (100%)</name>
<description><![CDATA[【v10.2 商業級分析】🔴最佳
═══ 綜合 HSI: 100% ═══
🧬 代謝指數Φ: 9.47 ✅充足 (Φ_crit=3.0)
Φ真實計算: Deutsch 2015 (非截斷)
🌡️ SST: 27.1°C
🌿 NPP: 3255 mgC/m²/d | DO: 4.5 ml/L
🏔️ 深度: 5006m
⚓ 水域: 帛琉EEZ
EEZ驗證: 嚴格保護區，部分禁漁
📍 距離: 1274 nm (127.4hr)
📊 【黃鰭鮪】預測依據：
  1. ⛰️水深 ↓ (貢獻 52%)
  2. bathy_slope ↓ (貢獻 25%)
  3. dist_shelf_break ↑ (貢獻 5%)
  4. 🌀渦旋強度 ↓ (貢獻 4%)]]></description>
<styleUrl>#s_best</styleUrl>
<Point><coordinates>130.0,5.25,0</coordinates></Point></Placemark>
<Placemark><name>#4 黃鰭鮪 (100%)</name>
<description><![CDATA[【v10.2 商業級分析】🔴最佳
═══ 綜合 HSI: 100% ═══
🧬 代謝指數Φ: 9.57 ✅充足 (Φ_crit=3.0)
Φ真實計算: Deutsch 2015 (非截斷)
🌡️ SST: 27.1°C
🌿 NPP: 3171 mgC/m²/d | DO: 4.5 ml/L
🏔️ 深度: 5389m
⚓ 水域: 帛琉EEZ
EEZ驗證: 嚴格保護區，部分禁漁
📍 距離: 1284 nm (128.4hr)
📊 【黃鰭鮪】預測依據：
  1. ⛰️水深 ↓ (貢獻 52%)
  2. bathy_slope ↓ (貢獻 25%)
  3. dist_shelf_break ↑ (貢獻 5%)
  4. 🌀渦旋強度 ↓ (貢獻 4%)]]></description>
<styleUrl>#s_best</styleUrl>
<Point><coordinates>130.5,5.25,0</coordinates></Point></Placemark>
<Placemark><name>#5 黃鰭鮪 (100%)</name>
<description><![CDATA[【v10.2 商業級分析】🔴最佳
═══ 綜合 HSI: 100% ═══
🧬 代謝指數Φ: 9.46 ✅充足 (Φ_crit=3.0)
Φ真實計算: Deutsch 2015 (非截斷)
🌡️ SST: 27.1°C
🌿 NPP: 5000 mgC/m²/d | DO: 4.5 ml/L
🏔️ 深度: 4496m
⚓ 水域: 帛琉EEZ
EEZ驗證: 嚴格保護區，部分禁漁
📍 距離: 1294 nm (129.5hr)
📊 【黃鰭鮪】預測依據：
  1. ⛰️水深 ↓ (貢獻 52%)
  2. bathy_slope ↓ (貢獻 25%)
  3. dist_shelf_break ↑ (貢獻 5%)
  4. 🌀渦旋強度 ↓ (貢獻 4%)]]></description>
<styleUrl>#s_best</styleUrl>
<Point><coordinates>131.0,5.25,0</coordinates></Point></Placemark>
</Folder>
<Folder><name>大目鮪</name>
<Placemark><name>#1 大目鮪 (100%)</name>
<description><![CDATA[【v10.2 商業級分析】🔴最佳
═══ 綜合 HSI: 100% ═══
🧬 代謝指數Φ: 12.65 ✅充足 (Φ_crit=3.5)
Φ真實計算: Deutsch 2015 (非截斷)
🌡️ SST: 21.0°C
🌿 NPP: 5000 mgC/m²/d | DO: 4.7 ml/L
🏔️ 深度: 2545m
⚓ 水域: 公海
📍 距離: 233 nm (23.3hr)
📊 【大目鮪】預測依據：
  1. ⛰️水深 ↓ (貢獻 52%)
  2. bathy_slope ↓ (貢獻 25%)
  3. dist_shelf_break ↑ (貢獻 5%)
  4. 🌀渦旋強度 ↓ (貢獻 4%)]]></description>
<styleUrl>#s_best</styleUrl>
<Point><coordinates>121.75,21.25,0</coordinates></Point></Placemark>
<Placemark><name>#2 大目鮪 (100%)</name>
<description><![CDATA[【v10.2 商業級分析】🔴最佳
═══ 綜合 HSI: 100% ═══
🧬 代謝指數Φ: 12.54 ✅充足 (Φ_crit=3.5)
Φ真實計算: Deutsch 2015 (非截斷)
🌡️ SST: 20.9°C
🌿 NPP: 5000 mgC/m²/d | DO: 4.6 ml/L
🏔️ 深度: 1106m
⚓ 水域: 台灣EEZ
EEZ驗證: 台灣籍漁船免許可
📍 距離: 222 nm (22.1hr)
📊 【大目鮪】預測依據：
  1. ⛰️水深 ↓ (貢獻 52%)
  2. bathy_slope ↓ (貢獻 25%)
  3. dist_shelf_break ↑ (貢獻 5%)
  4. 🌀渦旋強度 ↓ (貢獻 4%)]]></description>
<styleUrl>#s_best</styleUrl>
<Point><coordinates>121.0,21.5,0</coordinates></Point></Placemark>
<Placemark><name>#3 大目鮪 (100%)</name>
<description><![CDATA[【v10.2 商業級分析】🔴最佳
═══ 綜合 HSI: 100% ═══
🧬 代謝指數Φ: 12.59 ✅充足 (Φ_crit=3.5)
Φ真實計算: Deutsch 2015 (非截斷)
🌡️ SST: 20.9°C
🌿 NPP: 5000 mgC/m²/d | DO: 4.7 ml/L
🏔️ 深度: 2279m
⚓ 水域: 台灣EEZ
EEZ驗證: 台灣籍漁船免許可
📍 距離: 203 nm (20.3hr)
📊 【大目鮪】預測依據：
  1. ⛰️水深 ↓ (貢獻 52%)
  2. bathy_slope ↓ (貢獻 25%)
  3. dist_shelf_break ↑ (貢獻 5%)
  4. 🌀渦旋強度 ↓ (貢獻 4%)]]></description>
<styleUrl>#s_best</styleUrl>
<Point><coordinates>121.75,21.75,0</coordinates></Point></Placemark>
<Placemark><name>#4 大目鮪 (100%)</name>
<description><![CDATA[【v10.2 商業級分析】🔴最佳
═══ 綜合 HSI: 100% ═══
🧬 代謝指數Φ: 11.64 ✅充足 (Φ_crit=3.5)
Φ真實計算: Deutsch 2015 (非截斷)
🌡️ SST: 18.7°C
🌿 NPP: 2770 mgC/m²/d | DO: 6.8 ml/L
🏔️ 深度: 2m
⚓ 水域: 公海
📍 距離: 217 nm (21.7hr)
📊 【大目鮪】預測依據：
  1. ⛰️水深 ↓ (貢獻 52%)
  2. bathy_slope ↓ (貢獻 25%)
  3. dist_shelf_break ↑ (貢獻 5%)
  4. 🌀渦旋強度 ↓ (貢獻 4%)]]></description>
<styleUrl>#s_best</styleUrl>
<Point><coordinates>121.75,28.75,0</coordinates></Point></Placemark>
<Placemark><name>#5 大目鮪 (100%)</name>
<description><![CDATA[【v10.2 商業級分析】🔴最佳
═══ 綜合 HSI: 100% ═══
🧬 代謝指數Φ: 11.54 ✅充足 (Φ_crit=3.5)
Φ真實計算: Deutsch 2015 (非截斷)
🌡️ SST: 18.5°C
🌿 NPP: 5000 mgC/m²/d | DO: 6.8 ml/L
🏔️ 深度: 2m
⚓ 水域: 公海
📍 距離: 248 nm (24.8hr)
📊 【大目鮪】預測依據：
  1. ⛰️水深 ↓ (貢獻 52%)
  2. bathy_slope ↓ (貢獻 25%)
  3. dist_shelf_break ↑ (貢獻 5%)
  4. 🌀渦旋強度 ↓ (貢獻 4%)]]></description>
<styleUrl>#s_best</styleUrl>
<Point><coordinates>122.0,29.25,0</coordinates></Point></Placemark>
</Folder>
<Folder><name>長鰭鮪</name>
<Placemark><name>#1 長鰭鮪 (21%)</name>
<description><![CDATA[【v10.2 商業級分析】⚪偏低
═══ 綜合 HSI: 21% ═══
🧬 代謝指數Φ: 5.00 ✅充足 (Φ_crit=3.5)
Φ真實計算: Deutsch 2015 (非截斷)
🌡️ SST: 17.9°C
🌿 NPP: 493 mgC/m²/d | DO: 5.0 ml/L
🏔️ 深度: 1757m
⚓ 水域: 日本EEZ
EEZ驗證: 需日本政府許可證
📍 距離: 1037 nm (103.7hr)
📊 【長鰭鮪】預測依據：
  1. ⛰️水深 ↓ (貢獻 52%)
  2. bathy_slope ↓ (貢獻 25%)
  3. dist_shelf_break ↑ (貢獻 5%)
  4. 🌀渦旋強度 ↓ (貢獻 4%)]]></description>
<styleUrl>#s_low</styleUrl>
<Point><coordinates>139.25,32.0,0</coordinates></Point></Placemark>
<Placemark><name>#2 長鰭鮪 (21%)</name>
<description><![CDATA[【v10.2 商業級分析】⚪偏低
═══ 綜合 HSI: 21% ═══
🧬 代謝指數Φ: 5.00 ✅充足 (Φ_crit=3.5)
Φ真實計算: Deutsch 2015 (非截斷)
🌡️ SST: 18.7°C
🌿 NPP: 399 mgC/m²/d | DO: 5.0 ml/L
🏔️ 深度: 1674m
⚓ 水域: 公海
📍 距離: 1060 nm (106.1hr)
📊 【長鰭鮪】預測依據：
  1. ⛰️水深 ↓ (貢獻 52%)
  2. bathy_slope ↓ (貢獻 25%)
  3. dist_shelf_break ↑ (貢獻 5%)
  4. 🌀渦旋強度 ↓ (貢獻 4%)]]></description>
<styleUrl>#s_low</styleUrl>
<Point><coordinates>140.25,30.75,0</coordinates></Point></Placemark>
<Placemark><name>#3 長鰭鮪 (21%)</name>
<description><![CDATA[【v10.2 商業級分析】⚪偏低
═══ 綜合 HSI: 21% ═══
🧬 代謝指數Φ: 5.00 ✅充足 (Φ_crit=3.5)
Φ真實計算: Deutsch 2015 (非截斷)
🌡️ SST: 18.4°C
🌿 NPP: 405 mgC/m²/d | DO: 5.0 ml/L
🏔️ 深度: 1783m
⚓ 水域: 公海
📍 距離: 1070 nm (107.0hr)
📊 【長鰭鮪】預測依據：
  1. ⛰️水深 ↓ (貢獻 52%)
  2. bathy_slope ↓ (貢獻 25%)
  3. dist_shelf_break ↑ (貢獻 5%)
  4. 🌀渦旋強度 ↓ (貢獻 4%)]]></description>
<styleUrl>#s_low</styleUrl>
<Point><coordinates>140.25,31.25,0</coordinates></Point></Placemark>
<Placemark><name>#4 長鰭鮪 (21%)</name>
<description><![CDATA[【v10.2 商業級分析】⚪偏低
═══ 綜合 HSI: 21% ═══
🧬 代謝指數Φ: 5.00 ✅充足 (Φ_crit=3.5)
Φ真實計算: Deutsch 2015 (非截斷)
🌡️ SST: 17.7°C
🌿 NPP: 579 mgC/m²/d | DO: 5.0 ml/L
🏔️ 深度: 1508m
⚓ 水域: 日本EEZ
EEZ驗證: 需日本政府許可證
📍 距離: 1068 nm (106.8hr)
📊 【長鰭鮪】預測依據：
  1. ⛰️水深 ↓ (貢獻 52%)
  2. bathy_slope ↓ (貢獻 25%)
  3. dist_shelf_break ↑ (貢獻 5%)
  4. 🌀渦旋強度 ↓ (貢獻 4%)]]></description>
<styleUrl>#s_low</styleUrl>
<Point><coordinates>139.75,32.25,0</coordinates></Point></Placemark>
<Placemark><name>#5 長鰭鮪 (21%)</name>
<description><![CDATA[【v10.2 商業級分析】⚪偏低
═══ 綜合 HSI: 21% ═══
🧬 代謝指數Φ: 5.00 ✅充足 (Φ_crit=3.5)
Φ真實計算: Deutsch 2015 (非截斷)
🌡️ SST: 18.0°C
🌿 NPP: 668 mgC/m²/d | DO: 5.0 ml/L
🏔️ 深度: 1979m
⚓ 水域: 公海
📍 距離: 1081 nm (108.1hr)
📊 【長鰭鮪】預測依據：
  1. ⛰️水深 ↓ (貢獻 52%)
  2. bathy_slope ↓ (貢獻 25%)
  3. dist_shelf_break ↑ (貢獻 5%)
  4. 🌀渦旋強度 ↓ (貢獻 4%)]]></description>
<styleUrl>#s_low</styleUrl>
<Point><coordinates>140.25,31.75,0</coordinates></Point></Placemark>
</Folder>
</Folder>
<Folder><name>分析範圍</name><Placemark><styleUrl>#s_area</styleUrl>
<Polygon><outerBoundaryIs><LinearRing><coordinates>
120.0,5.0,0 175.0,5.0,0 175.0,35.0,0 120.0,35.0,0 120.0,5.0,0
</coordinates></LinearRing></outerBoundaryIs></Polygon></Placemark></Folder>
</Document>
</kml>