<?xml version="1.0" encoding="UTF-8"?>
<kml xmlns="http://www.opengis.net/kml/2.2">
<Document>
<name>🎣 OceanMaster v10.2 漁場預測</name>
<description>生成: 2026-02-14 21:09 UTC
⚠️ 本預測僅供參考，實際作業請依據船長經驗和即時觀測</description>
<Style id="s_best"><IconStyle><scale>1.3</scale><Icon><href>https://maps.google.com/mapfiles/kml/paddle/red-circle.png</href></Icon></IconStyle></Style>
<Style id="s_good"><IconStyle><scale>1.1</scale><Icon><href>https://maps.google.com/mapfiles/kml/paddle/orange-circle.png</href></Icon></IconStyle></Style>
<Style id="s_fair"><IconStyle><scale>0.9</scale><Icon><href>https://maps.google.com/mapfiles/kml/paddle/ylw-circle.png</href></Icon></IconStyle></Style>
<Style id="s_low"><IconStyle><scale>0.7</scale><Icon><href>https://maps.google.com/mapfiles/kml/paddle/wht-circle.png</href></Icon></IconStyle></Style>
<Style id="s_area"><PolyStyle><color>20ffffff</color><outline>1</outline></PolyStyle><LineStyle><color>ff0088ff</color><width>1</width></LineStyle></Style>
<LookAt><longitude>147.5</longitude><latitude>20.0</latitude><range>2500000</range></LookAt>
<Folder><name>🎯 v10.2 漁場熱點</name><open>1</open>
<description>Φ(Deutsch2015真實計算) + SEAPODYM棲息地 + 營養鏈
Φ不截斷 + EEZ地理校正 + HSI幾何平均
生成: 2026-02-14 21:09 UTC</description>
<Folder><name>鰹魚</name>
<Placemark><name>#1 鰹魚 (100%)</name>
<description><![CDATA[【v10.2 商業級分析】🔴最佳
═══ 綜合 HSI: 100% ═══
🧬 代謝指數Φ: 8.45 ✅充足 (Φ_crit=3.0)
Φ真實計算: Deutsch 2015 (非截斷)
🌡️ SST: 27.2°C
🌿 NPP: 4757 mgC/m²/d | DO: 4.5 ml/L
🏔️ 深度: -1m
⚓ 水域: 菲律賓EEZ
EEZ驗證: 外國漁船需特別許可
📍 距離: 1212 nm (121.1hr)
📊 【正鰹】預測依據：
  1. ⛰️水深 ↓ (貢獻 52%)
  2. bathy_slope ↓ (貢獻 25%)
  3. dist_shelf_break ↑ (貢獻 5%)
  4. 🌀渦旋強度 ↓ (貢獻 4%)]]></description>
<styleUrl>#s_best</styleUrl>
<Point><coordinates>120.0,5.0,0</coordinates></Point></Placemark>
<Placemark><name>#2 鰹魚 (100%)</name>
<description><![CDATA[【v10.2 商業級分析】🔴最佳
═══ 綜合 HSI: 100% ═══
🧬 代謝指數Φ: 8.47 ✅充足 (Φ_crit=3.0)
Φ真實計算: Deutsch 2015 (非截斷)
🌡️ SST: 27.2°C
🌿 NPP: 5000 mgC/m²/d | DO: 4.5 ml/L
🏔️ 深度: 3489m
⚓ 水域: 菲律賓EEZ
EEZ驗證: 外國漁船需特別許可
📍 距離: 1210 nm (121.0hr)
📊 【正鰹】預測依據：
  1. ⛰️水深 ↓ (貢獻 52%)
  2. bathy_slope ↓ (貢獻 25%)
  3. dist_shelf_break ↑ (貢獻 5%)
  4. 🌀渦旋強度 ↓ (貢獻 4%)]]></description>
<styleUrl>#s_best</styleUrl>
<Point><coordinates>120.5,5.0,0</coordinates></Point></Placemark>
<Placemark><name>#3 鰹魚 (100%)</name>
<description><![CDATA[【v10.2 商業級分析】🔴最佳
═══ 綜合 HSI: 100% ═══
🧬 代謝指數Φ: 8.47 ✅充足 (Φ_crit=3.0)
Φ真實計算: Deutsch 2015 (非截斷)
🌡️ SST: 27.2°C
🌿 NPP: 5000 mgC/m²/d | DO: 4.5 ml/L
🏔️ 深度: 4394m
⚓ 水域: 菲律賓EEZ
EEZ驗證: 外國漁船需特別許可
📍 距離: 1208 nm (120.8hr)
📊 【正鰹】預測依據：
  1. ⛰️水深 ↓ (貢獻 52%)
  2. bathy_slope ↓ (貢獻 25%)
  3. dist_shelf_break ↑ (貢獻 5%)
  4. 🌀渦旋強度 ↓ (貢獻 4%)]]></description>
<styleUrl>#s_best</styleUrl>
<Point><coordinates>121.0,5.0,0</coordinates></Point></Placemark>
<Placemark><name>#4 鰹魚 (100%)</name>
<description><![CDATA[【v10.2 商業級分析】🔴最佳
═══ 綜合 HSI: 100% ═══
🧬 代謝指數Φ: 8.42 ✅充足 (Φ_crit=3.0)
Φ真實計算: Deutsch 2015 (非截斷)
🌡️ SST: 27.2°C
🌿 NPP: 5000 mgC/m²/d | DO: 4.5 ml/L
🏔️ 深度: 4348m
⚓ 水域: 菲律賓EEZ
EEZ驗證: 外國漁船需特別許可
📍 距離: 1208 nm (120.8hr)
📊 【正鰹】預測依據：
  1. ⛰️水深 ↓ (貢獻 52%)
  2. bathy_slope ↓ (貢獻 25%)
  3. dist_shelf_break ↑ (貢獻 5%)
  4. 🌀渦旋強度 ↓ (貢獻 4%)]]></description>
<styleUrl>#s_best</styleUrl>
<Point><coordinates>121.5,5.0,0</coordinates></Point></Placemark>
<Placemark><name>#5 鰹魚 (100%)</name>
<description><![CDATA[【v10.2 商業級分析】🔴最佳
═══ 綜合 HSI: 100% ═══
🧬 代謝指數Φ: 8.52 ✅充足 (Φ_crit=3.0)
Φ真實計算: Deutsch 2015 (非截斷)
🌡️ SST: 27.2°C
🌿 NPP: 5000 mgC/m²/d | DO: 4.5 ml/L
🏔️ 深度: 4970m
⚓ 水域: 菲律賓EEZ
EEZ驗證: 外國漁船需特別許可
📍 距離: 1208 nm (120.8hr)
📊 【正鰹】預測依據：
  1. ⛰️水深 ↓ (貢獻 52%)
  2. bathy_slope ↓ (貢獻 25%)
  3. dist_shelf_break ↑ (貢獻 5%)
  4. 🌀渦旋強度 ↓ (貢獻 4%)]]></description>
<styleUrl>#s_best</styleUrl>
<Point><coordinates>122.0,5.0,0</coordinates></Point></Placemark>
</Folder>
<Folder><name>黃鰭鮪</name>
<Placemark><name>#1 黃鰭鮪 (100%)</name>
<description><![CDATA[【v10.2 商業級分析】🔴最佳
═══ 綜合 HSI: 100% ═══
🧬 代謝指數Φ: 9.52 ✅充足 (Φ_crit=3.0)
Φ真實計算: Deutsch 2015 (非截斷)
🌡️ SST: 27.2°C
🌿 NPP: 4757 mgC/m²/d | DO: 4.5 ml/L
🏔️ 深度: -1m
⚓ 水域: 菲律賓EEZ
EEZ驗證: 外國漁船需特別許可
📍 距離: 1212 nm (121.1hr)
📊 【黃鰭鮪】預測依據：
  1. ⛰️水深 ↓ (貢獻 52%)
  2. bathy_slope ↓ (貢獻 25%)
  3. dist_shelf_break ↑ (貢獻 5%)
  4. 🌀渦旋強度 ↓ (貢獻 4%)]]></description>
<styleUrl>#s_best</styleUrl>
<Point><coordinates>120.0,5.0,0</coordinates></Point></Placemark>
<Placemark><name>#2 黃鰭鮪 (100%)</name>
<description><![CDATA[【v10.2 商業級分析】🔴最佳
═══ 綜合 HSI: 100% ═══
🧬 代謝指數Φ: 9.54 ✅充足 (Φ_crit=3.0)
Φ真實計算: Deutsch 2015 (非截斷)
🌡️ SST: 27.2°C
🌿 NPP: 5000 mgC/m²/d | DO: 4.5 ml/L
🏔️ 深度: 3489m
⚓ 水域: 菲律賓EEZ
EEZ驗證: 外國漁船需特別許可
📍 距離: 1210 nm (121.0hr)
📊 【黃鰭鮪】預測依據：
  1. ⛰️水深 ↓ (貢獻 52%)
  2. bathy_slope ↓ (貢獻 25%)
  3. dist_shelf_break ↑ (貢獻 5%)
  4. 🌀渦旋強度 ↓ (貢獻 4%)]]></description>
<styleUrl>#s_best</styleUrl>
<Point><coordinates>120.5,5.0,0</coordinates></Point></Placemark>
<Placemark><name>#3 黃鰭鮪 (100%)</name>
<description><![CDATA[【v10.2 商業級分析】🔴最佳
═══ 綜合 HSI: 100% ═══
🧬 代謝指數Φ: 9.54 ✅充足 (Φ_crit=3.0)
Φ真實計算: Deutsch 2015 (非截斷)
🌡️ SST: 27.2°C
🌿 NPP: 5000 mgC/m²/d | DO: 4.5 ml/L
🏔️ 深度: 4394m
⚓ 水域: 菲律賓EEZ
EEZ驗證: 外國漁船需特別許可
📍 距離: 1208 nm (120.8hr)
📊 【黃鰭鮪】預測依據：
  1. ⛰️水深 ↓ (貢獻 52%)
  2. bathy_slope ↓ (貢獻 25%)
  3. dist_shelf_break ↑ (貢獻 5%)
  4. 🌀渦旋強度 ↓ (貢獻 4%)]]></description>
<styleUrl>#s_best</styleUrl>
<Point><coordinates>121.0,5.0,0</coordinates></Point></Placemark>
<Placemark><name>#4 黃鰭鮪 (100%)</name>
<description><![CDATA[【v10.2 商業級分析】🔴最佳
═══ 綜合 HSI: 100% ═══
🧬 代謝指數Φ: 9.48 ✅充足 (Φ_crit=3.0)
Φ真實計算: Deutsch 2015 (非截斷)
🌡️ SST: 27.2°C
🌿 NPP: 5000 mgC/m²/d | DO: 4.5 ml/L
🏔️ 深度: 4348m
⚓ 水域: 菲律賓EEZ
EEZ驗證: 外國漁船需特別許可
📍 距離: 1208 nm (120.8hr)
📊 【黃鰭鮪】預測依據：
  1. ⛰️水深 ↓ (貢獻 52%)
  2. bathy_slope ↓ (貢獻 25%)
  3. dist_shelf_break ↑ (貢獻 5%)
  4. 🌀渦旋強度 ↓ (貢獻 4%)]]></description>
<styleUrl>#s_best</styleUrl>
<Point><coordinates>121.5,5.0,0</coordinates></Point></Placemark>
<Placemark><name>#5 黃鰭鮪 (100%)</name>
<description><![CDATA[【v10.2 商業級分析】🔴最佳
═══ 綜合 HSI: 100% ═══
🧬 代謝指數Φ: 9.60 ✅充足 (Φ_crit=3.0)
Φ真實計算: Deutsch 2015 (非截斷)
🌡️ SST: 27.2°C
🌿 NPP: 5000 mgC/m²/d | DO: 4.5 ml/L
🏔️ 深度: 4970m
⚓ 水域: 菲律賓EEZ
EEZ驗證: 外國漁船需特別許可
📍 距離: 1208 nm (120.8hr)
📊 【黃鰭鮪】預測依據：
  1. ⛰️水深 ↓ (貢獻 52%)
  2. bathy_slope ↓ (貢獻 25%)
  3. dist_shelf_break ↑ (貢獻 5%)
  4. 🌀渦旋強度 ↓ (貢獻 4%)]]></description>
<styleUrl>#s_best</styleUrl>
<Point><coordinates>122.0,5.0,0</coordinates></Point></Placemark>
</Folder>
<Folder><name>大目鮪</name>
<Placemark><name>#1 大目鮪 (100%)</name>
<description><![CDATA[【v10.2 商業級分析】🔴最佳
═══ 綜合 HSI: 100% ═══
🧬 代謝指數Φ: 12.88 ✅充足 (Φ_crit=3.5)
Φ真實計算: Deutsch 2015 (非截斷)
🌡️ SST: 22.4°C
🌿 NPP: 5000 mgC/m²/d | DO: 4.5 ml/L
🏔️ 深度: 4307m
⚓ 水域: 菲律賓EEZ
EEZ驗證: 外國漁船需特別許可
📍 距離: 506 nm (50.6hr)
📊 【大目鮪】預測依據：
  1. ⛰️水深 ↓ (貢獻 52%)
  2. bathy_slope ↓ (貢獻 25%)
  3. dist_shelf_break ↑ (貢獻 5%)
  4. 🌀渦旋強度 ↓ (貢獻 4%)]]></description>
<styleUrl>#s_best</styleUrl>
<Point><coordinates>122.75,16.75,0</coordinates></Point></Placemark>
<Placemark><name>#2 大目鮪 (100%)</name>
<description><![CDATA[【v10.2 商業級分析】🔴最佳
═══ 綜合 HSI: 100% ═══
🧬 代謝指數Φ: 12.80 ✅充足 (Φ_crit=3.5)
Φ真實計算: Deutsch 2015 (非截斷)
🌡️ SST: 22.3°C
🌿 NPP: 5000 mgC/m²/d | DO: 4.6 ml/L
🏔️ 深度: 3266m
⚓ 水域: 菲律賓EEZ
EEZ驗證: 外國漁船需特別許可
📍 距離: 478 nm (47.8hr)
📊 【大目鮪】預測依據：
  1. ⛰️水深 ↓ (貢獻 52%)
  2. bathy_slope ↓ (貢獻 25%)
  3. dist_shelf_break ↑ (貢獻 5%)
  4. 🌀渦旋強度 ↓ (貢獻 4%)]]></description>
<styleUrl>#s_best</styleUrl>
<Point><coordinates>123.0,17.25,0</coordinates></Point></Placemark>
<Placemark><name>#3 大目鮪 (100%)</name>
<description><![CDATA[【v10.2 商業級分析】🔴最佳
═══ 綜合 HSI: 100% ═══
🧬 代謝指數Φ: 12.73 ✅充足 (Φ_crit=3.5)
Φ真實計算: Deutsch 2015 (非截斷)
🌡️ SST: 22.1°C
🌿 NPP: 5000 mgC/m²/d | DO: 4.6 ml/L
🏔️ 深度: 3640m
⚓ 水域: 菲律賓EEZ
EEZ驗證: 外國漁船需特別許可
📍 距離: 446 nm (44.6hr)
📊 【大目鮪】預測依據：
  1. ⛰️水深 ↓ (貢獻 52%)
  2. bathy_slope ↓ (貢獻 25%)
  3. dist_shelf_break ↑ (貢獻 5%)
  4. 🌀渦旋強度 ↓ (貢獻 4%)]]></description>
<styleUrl>#s_best</styleUrl>
<Point><coordinates>122.75,17.75,0</coordinates></Point></Placemark>
<Placemark><name>#4 大目鮪 (100%)</name>
<description><![CDATA[【v10.2 商業級分析】🔴最佳
═══ 綜合 HSI: 100% ═══
🧬 代謝指數Φ: 12.87 ✅充足 (Φ_crit=3.5)
Φ真實計算: Deutsch 2015 (非截斷)
🌡️ SST: 21.9°C
🌿 NPP: 5000 mgC/m²/d | DO: 4.6 ml/L
🏔️ 深度: 3722m
⚓ 水域: 菲律賓EEZ
EEZ驗證: 外國漁船需特別許可
📍 距離: 416 nm (41.6hr)
📊 【大目鮪】預測依據：
  1. ⛰️水深 ↓ (貢獻 52%)
  2. bathy_slope ↓ (貢獻 25%)
  3. dist_shelf_break ↑ (貢獻 5%)
  4. 🌀渦旋強度 ↓ (貢獻 4%)]]></description>
<styleUrl>#s_best</styleUrl>
<Point><coordinates>122.75,18.25,0</coordinates></Point></Placemark>
<Placemark><name>#5 大目鮪 (100%)</name>
<description><![CDATA[【v10.2 商業級分析】🔴最佳
═══ 綜合 HSI: 100% ═══
🧬 代謝指數Φ: 12.77 ✅充足 (Φ_crit=3.5)
Φ真實計算: Deutsch 2015 (非截斷)
🌡️ SST: 21.8°C
🌿 NPP: 5000 mgC/m²/d | DO: 4.6 ml/L
🏔️ 深度: 1435m
⚓ 水域: 菲律賓EEZ
EEZ驗證: 外國漁船需特別許可
📍 距離: 385 nm (38.5hr)
📊 【大目鮪】預測依據：
  1. ⛰️水深 ↓ (貢獻 52%)
  2. bathy_slope ↓ (貢獻 25%)
  3. dist_shelf_break ↑ (貢獻 5%)
  4. 🌀渦旋強度 ↓ (貢獻 4%)]]></description>
<styleUrl>#s_best</styleUrl>
<Point><coordinates>122.5,18.75,0</coordinates></Point></Placemark>
</Folder>
<Folder><name>長鰭鮪</name>
<Placemark><name>#1 長鰭鮪 (21%)</name>
<description><![CDATA[【v10.2 商業級分析】⚪偏低
═══ 綜合 HSI: 21% ═══
🧬 代謝指數Φ: 5.00 ✅充足 (Φ_crit=3.5)
Φ真實計算: Deutsch 2015 (非截斷)
🌡️ SST: 18.9°C
🌿 NPP: 3026 mgC/m²/d | DO: 5.0 ml/L
🏔️ 深度: 309m
⚓ 水域: 公海
📍 距離: 1056 nm (105.6hr)
📊 【長鰭鮪】預測依據：
  1. ⛰️水深 ↓ (貢獻 52%)
  2. bathy_slope ↓ (貢獻 25%)
  3. dist_shelf_break ↑ (貢獻 5%)
  4. 🌀渦旋強度 ↓ (貢獻 4%)]]></description>
<styleUrl>#s_low</styleUrl>
<Point><coordinates>140.25,30.5,0</coordinates></Point></Placemark>
<Placemark><name>#2 長鰭鮪 (21%)</name>
<description><![CDATA[【v10.2 商業級分析】⚪偏低
═══ 綜合 HSI: 21% ═══
🧬 代謝指數Φ: 5.00 ✅充足 (Φ_crit=3.5)
Φ真實計算: Deutsch 2015 (非截斷)
🌡️ SST: 18.4°C
🌿 NPP: 3128 mgC/m²/d | DO: 5.0 ml/L
🏔️ 深度: 1783m
⚓ 水域: 公海
📍 距離: 1070 nm (107.0hr)
📊 【長鰭鮪】預測依據：
  1. ⛰️水深 ↓ (貢獻 52%)
  2. bathy_slope ↓ (貢獻 25%)
  3. dist_shelf_break ↑ (貢獻 5%)
  4. 🌀渦旋強度 ↓ (貢獻 4%)]]></description>
<styleUrl>#s_low</styleUrl>
<Point><coordinates>140.25,31.25,0</coordinates></Point></Placemark>
<Placemark><name>#3 長鰭鮪 (20%)</name>
<description><![CDATA[【v10.2 商業級分析】⚪偏低
═══ 綜合 HSI: 20% ═══
🧬 代謝指數Φ: 5.00 ✅充足 (Φ_crit=3.5)
Φ真實計算: Deutsch 2015 (非截斷)
🌡️ SST: 17.7°C
🌿 NPP: 3242 mgC/m²/d | DO: 4.9 ml/L
🏔️ 深度: 1094m
⚓ 水域: 日本EEZ
EEZ驗證: 需日本政府許可證
📍 距離: 1055 nm (105.5hr)
📊 【長鰭鮪】預測依據：
  1. ⛰️水深 ↓ (貢獻 52%)
  2. bathy_slope ↓ (貢獻 25%)
  3. dist_shelf_break ↑ (貢獻 5%)
  4. 🌀渦旋強度 ↓ (貢獻 4%)]]></description>
<styleUrl>#s_low</styleUrl>
<Point><coordinates>139.5,32.25,0</coordinates></Point></Placemark>
<Placemark><name>#4 長鰭鮪 (20%)</name>
<description><![CDATA[【v10.2 商業級分析】⚪偏低
═══ 綜合 HSI: 20% ═══
🧬 代謝指數Φ: 5.00 ✅充足 (Φ_crit=3.5)
Φ真實計算: Deutsch 2015 (非截斷)
🌡️ SST: 17.8°C
🌿 NPP: 3245 mgC/m²/d | DO: 5.0 ml/L
🏔️ 深度: 1532m
⚓ 水域: 日本EEZ
EEZ驗證: 需日本政府許可證
📍 距離: 1030 nm (103.0hr)
📊 【長鰭鮪】預測依據：
  1. ⛰️水深 ↓ (貢獻 52%)
  2. bathy_slope ↓ (貢獻 25%)
  3. dist_shelf_break ↑ (貢獻 5%)
  4. 🌀渦旋強度 ↓ (貢獻 4%)]]></description>
<styleUrl>#s_low</styleUrl>
<Point><coordinates>139.0,32.25,0</coordinates></Point></Placemark>
<Placemark><name>#5 長鰭鮪 (20%)</name>
<description><![CDATA[【v10.2 商業級分析】⚪偏低
═══ 綜合 HSI: 20% ═══
🧬 代謝指數Φ: 5.00 ✅充足 (Φ_crit=3.5)
Φ真實計算: Deutsch 2015 (非截斷)
🌡️ SST: 17.9°C
🌿 NPP: 3215 mgC/m²/d | DO: 5.0 ml/L
🏔️ 深度: 1243m
⚓ 水域: 日本EEZ
EEZ驗證: 需日本政府許可證
📍 距離: 1074 nm (107.4hr)
📊 【長鰭鮪】預測依據：
  1. ⛰️水深 ↓ (貢獻 52%)
  2. bathy_slope ↓ (貢獻 25%)
  3. dist_shelf_break ↑ (貢獻 5%)
  4. 🌀渦旋強度 ↓ (貢獻 4%)]]></description>
<styleUrl>#s_low</styleUrl>
<Point><coordinates>140.0,32.0,0</coordinates></Point></Placemark>
</Folder>
</Folder>
<Folder><name>分析範圍</name><Placemark><styleUrl>#s_area</styleUrl>
<Polygon><outerBoundaryIs><LinearRing><coordinates>
120.0,5.0,0 175.0,5.0,0 175.0,35.0,0 120.0,35.0,0 120.0,5.0,0
</coordinates></LinearRing></outerBoundaryIs></Polygon></Placemark></Folder>
</Document>
</kml>