{
  "type": "FeatureCollection",
  "features": [
    {
      "type": "Feature",
      "geometry": {
        "type": "Point",
        "coordinates": [
          120.25,
          16.0
        ]
      },
      "properties": {
        "name": "#1 skipjack",
        "score": 100,
        "species": "skipjack",
        "distance_nm": 553.7,
        "travel_hours": 55.4,
        "eez": "公海",
        "safety": "",
        "marker-color": "#e53935",
        "marker-size": "large",
        "marker-symbol": "harbor"
      }
    },
    {
      "type": "Feature",
      "geometry": {
        "type": "Point",
        "coordinates": [
          120.25,
          16.5
        ]
      },
      "properties": {
        "name": "#2 skipjack",
        "score": 100,
        "species": "skipjack",
        "distance_nm": 524.1,
        "travel_hours": 52.4,
        "eez": "公海",
        "safety": "",
        "marker-color": "#e53935",
        "marker-size": "large",
        "marker-symbol": "harbor"
      }
    },
    {
      "type": "Feature",
      "geometry": {
        "type": "Point",
        "coordinates": [
          120.25,
          17.0
        ]
      },
      "properties": {
        "name": "#3 skipjack",
        "score": 100,
        "species": "skipjack",
        "distance_nm": 494.5,
        "travel_hours": 49.4,
        "eez": "公海",
        "safety": "",
        "marker-color": "#e53935",
        "marker-size": "large",
        "marker-symbol": "harbor"
      }
    },
    {
      "type": "Feature",
      "geometry": {
        "type": "Point",
        "coordinates": [
          122.5,
          17.25
        ]
      },
      "properties": {
        "name": "#4 skipjack",
        "score": 100,
        "species": "skipjack",
        "distance_nm": 474.6,
        "travel_hours": 47.5,
        "eez": "公海",
        "safety": "",
        "marker-color": "#e53935",
        "marker-size": "large",
        "marker-symbol": "harbor"
      }
    },
    {
      "type": "Feature",
      "geometry": {
        "type": "Point",
        "coordinates": [
          120.25,
          17.5
        ]
      },
      "properties": {
        "name": "#5 skipjack",
        "score": 100,
        "species": "skipjack",
        "distance_nm": 464.9,
        "travel_hours": 46.5,
        "eez": "公海",
        "safety": "",
        "marker-color": "#e53935",
        "marker-size": "large",
        "marker-symbol": "harbor"
      }
    },
    {
      "type": "Feature",
      "geometry": {
        "type": "Point",
        "coordinates": [
          122.25,
          17.75
        ]
      },
      "properties": {
        "name": "#6 skipjack",
        "score": 100,
        "species": "skipjack",
        "distance_nm": 443.7,
        "travel_hours": 44.4,
        "eez": "公海",
        "safety": "",
        "marker-color": "#e53935",
        "marker-size": "large",
        "marker-symbol": "harbor"
      }
    },
    {
      "type": "Feature",
      "geometry": {
        "type": "Point",
        "coordinates": [
          120.25,
          18.0
        ]
      },
      "properties": {
        "name": "#7 skipjack",
        "score": 100,
        "species": "skipjack",
        "distance_nm": 435.4,
        "travel_hours": 43.5,
        "eez": "公海",
        "safety": "",
        "marker-color": "#e53935",
        "marker-size": "large",
        "marker-symbol": "harbor"
      }
    },
    {
      "type": "Feature",
      "geometry": {
        "type": "Point",
        "coordinates": [
          120.25,
          18.5
        ]
      },
      "properties": {
        "name": "#8 skipjack",
        "score": 100,
        "species": "skipjack",
        "distance_nm": 406.0,
        "travel_hours": 40.6,
        "eez": "公海",
        "safety": "",
        "marker-color": "#e53935",
        "marker-size": "large",
        "marker-symbol": "harbor"
      }
    },
    {
      "type": "Feature",
      "geometry": {
        "type": "Point",
        "coordinates": [
          120.75,
          18.5
        ]
      },
      "properties": {
        "name": "#9 skipjack",
        "score": 100,
        "species": "skipjack",
        "distance_nm": 401.4,
        "travel_hours": 40.1,
        "eez": "公海",
        "safety": "",
        "marker-color": "#e53935",
        "marker-size": "large",
        "marker-symbol": "harbor"
      }
    },
    {
      "type": "Feature",
      "geometry": {
        "type": "Point",
        "coordinates": [
          121.75,
          18.5
        ]
      },
      "properties": {
        "name": "#10 skipjack",
        "score": 100,
        "species": "skipjack",
        "distance_nm": 397.8,
        "travel_hours": 39.8,
        "eez": "公海",
        "safety": "",
        "marker-color": "#e53935",
        "marker-size": "large",
        "marker-symbol": "harbor"
      }
    },
    {
      "type": "Feature",
      "geometry": {
        "type": "Point",
        "coordinates": [
          122.25,
          18.5
        ]
      },
      "properties": {
        "name": "#11 skipjack",
        "score": 100,
        "species": "skipjack",
        "distance_nm": 398.8,
        "travel_hours": 39.9,
        "eez": "公海",
        "safety": "",
        "marker-color": "#e53935",
        "marker-size": "large",
        "marker-symbol": "harbor"
      }
    },
    {
      "type": "Feature",
      "geometry": {
        "type": "Point",
        "coordinates": [
          120.25,
          19.0
        ]
      },
      "properties": {
        "name": "#12 skipjack",
        "score": 100,
        "species": "skipjack",
        "distance_nm": 376.6,
        "travel_hours": 37.7,
        "eez": "公海",
        "safety": "",
        "marker-color": "#e53935",
        "marker-size": "large",
        "marker-symbol": "harbor"
      }
    },
    {
      "type": "Feature",
      "geometry": {
        "type": "Point",
        "coordinates": [
          121.0,
          19.75
        ]
      },
      "properties": {
        "name": "#13 skipjack",
        "score": 100,
        "species": "skipjack",
        "distance_nm": 325.3,
        "travel_hours": 32.5,
        "eez": "公海",
        "safety": "",
        "marker-color": "#e53935",
        "marker-size": "large",
        "marker-symbol": "harbor"
      }
    },
    {
      "type": "Feature",
      "geometry": {
        "type": "Point",
        "coordinates": [
          120.75,
          20.25
        ]
      },
      "properties": {
        "name": "#14 skipjack",
        "score": 100,
        "species": "skipjack",
        "distance_nm": 297.7,
        "travel_hours": 29.8,
        "eez": "公海",
        "safety": "",
        "marker-color": "#e53935",
        "marker-size": "large",
        "marker-symbol": "harbor"
      }
    },
    {
      "type": "Feature",
      "geometry": {
        "type": "Point",
        "coordinates": [
          120.75,
          22.25
        ]
      },
      "properties": {
        "name": "#15 skipjack",
        "score": 100,
        "species": "skipjack",
        "distance_nm": 181.0,
        "travel_hours": 18.1,
        "eez": "公海",
        "safety": "",
        "marker-color": "#e53935",
        "marker-size": "large",
        "marker-symbol": "harbor"
      }
    },
    {
      "type": "Feature",
      "geometry": {
        "type": "Point",
        "coordinates": [
          120.25,
          23.5
        ]
      },
      "properties": {
        "name": "#16 skipjack",
        "score": 100,
        "species": "skipjack",
        "distance_nm": 126.9,
        "travel_hours": 12.7,
        "eez": "公海",
        "safety": "",
        "marker-color": "#e53935",
        "marker-size": "large",
        "marker-symbol": "harbor"
      }
    },
    {
      "type": "Feature",
      "geometry": {
        "type": "Point",
        "coordinates": [
          120.5,
          24.0
        ]
      },
      "properties": {
        "name": "#17 skipjack",
        "score": 100,
        "species": "skipjack",
        "distance_nm": 95.6,
        "travel_hours": 9.6,
        "eez": "公海",
        "safety": "",
        "marker-color": "#e53935",
        "marker-size": "large",
        "marker-symbol": "harbor"
      }
    },
    {
      "type": "Feature",
      "geometry": {
        "type": "Point",
        "coordinates": [
          122.25,
          24.5
        ]
      },
      "properties": {
        "name": "#18 skipjack",
        "score": 100,
        "species": "skipjack",
        "distance_nm": 46.9,
        "travel_hours": 4.7,
        "eez": "公海",
        "safety": "",
        "marker-color": "#e53935",
        "marker-size": "large",
        "marker-symbol": "harbor"
      }
    },
    {
      "type": "Feature",
      "geometry": {
        "type": "Point",
        "coordinates": [
          121.75,
          24.75
        ]
      },
      "properties": {
        "name": "#19 skipjack",
        "score": 100,
        "species": "skipjack",
        "distance_nm": 22.8,
        "travel_hours": 2.3,
        "eez": "公海",
        "safety": "",
        "marker-color": "#e53935",
        "marker-size": "large",
        "marker-symbol": "harbor"
      }
    },
    {
      "type": "Feature",
      "geometry": {
        "type": "Point",
        "coordinates": [
          121.25,
          25.0
        ]
      },
      "properties": {
        "name": "#20 skipjack",
        "score": 100,
        "species": "skipjack",
        "distance_nm": 27.7,
        "travel_hours": 2.8,
        "eez": "公海",
        "safety": "",
        "marker-color": "#e53935",
        "marker-size": "large",
        "marker-symbol": "harbor"
      }
    },
    {
      "type": "Feature",
      "geometry": {
        "type": "LineString",
        "coordinates": [
          [
            121.75,
            25.25
          ]
        ]
      },
      "properties": {
        "name": "建議航線",
        "type": "fuel_optimal",
        "distance_nm": 7.2,
        "time_hours": Infinity,
        "fuel_savings_pct": 0,
        "stroke": "#4fc3f7",
        "stroke-width": 3,
        "stroke-opacity": 0.8
      }
    }
  ],
  "properties": {
    "generator": "OceanMaster v9.0",
    "timestamp": "2026-02-13T20:58:46.964985+00:00",
    "n_hotspots": 20
  }
}